{"type": "FeatureCollection", "features": [{"type": "Feature", "geometry": {"type": "LineString", "coordinates": [[-114.12682288326323, 51.072905184701085], [-114.12685196846724, 51.07298129238188], [-114.12685196846724, 51.07298129238188], [-114.12685196846724, 51.07298129238188], [-114.12690192461014, 51.07306460849941], [-114.12697459571064, 51.07314323075116], [-114.12711256183684, 51.07329159043729], [-114.12719428539276, 51.07335931621492], [-114.12728388793766, 51.07342821545899], [-114.12732604891062, 51.07346383854747], [-114.12750818766654, 51.073602391406894], [-114.12758672609925, 51.073677157983184], [-114.12765730172396, 51.073747565969825], [-114.12776970304549, 51.073850160464644], [-114.12783382460475, 51.073917634785175], [-114.12796181626618, 51.074047554284334], [-114.12801470607519, 51.074107652530074], [-114.12804228253663, 51.07413908466697], [-114.12809626199305, 51.07420823536813], [-114.1281249281019, 51.074244445189834], [-114.12826431915164, 51.07438207603991], [-114.1283543407917, 51.074432702735066], [-114.12849842570722, 51.07448559254408], [-114.1286064684391, 51.074501099064946], [-114.12890159524977, 51.07448307797313], [-114.12895364686847, 51.07447352260351], [-114.12901039235294, 51.074463883414865], [-114.12929437123239, 51.07444158755243], [-114.1293509490788, 51.07443924061954], [-114.12964364513755, 51.074432199820876], [-114.12969972006977, 51.07442943379283], [-114.12981044501066, 51.07442348264158], [-114.12997540086508, 51.07442004606128], [-114.13007690571249, 51.07441887259483], [-114.1301282029599, 51.07441811822355], [-114.13039281964302, 51.074420381337404], [-114.13064477965236, 51.07443446293473], [-114.13075206801295, 51.07443043962121], [-114.13108248263597, 51.07442499138415], [-114.13123603910208, 51.074417531490326], [-114.13128892891109, 51.07441811822355], [-114.13139303214848, 51.074427254498005], [-114.13173040375113, 51.0744171962142], [-114.13178857415915, 51.07441686093807], [-114.13184531964362, 51.074416022747755], [-114.13200968876481, 51.07442599721253], [-114.13211806677282, 51.074426835402846], [-114.1324417758733, 51.074445275589824], [-114.1325472202152, 51.0744449403137], [-114.13285491988063, 51.07444016262889], [-114.13290688768029, 51.07444116845727], [-114.13320913910866, 51.07442490756512], [-114.1333194449544, 51.074420465156436], [-114.13344274275005, 51.0744187887758], [-114.13350099697709, 51.07441786676645], [-114.13360828533769, 51.07441325671971], [-114.13371833972633, 51.07441660948098], [-114.13390450179577, 51.07443203218281], [-114.13403416983783, 51.07442457228899], [-114.1343538556248, 51.07442373409867], [-114.13447774015367, 51.074425745755434], [-114.13478937931359, 51.07441300526261], [-114.13491200655699, 51.07439733110368], [-114.13521878421307, 51.07441434636712], [-114.13527837954462, 51.074415016919374], [-114.13544459268451, 51.07440470717847], [-114.13556847721338, 51.07440596446395], [-114.13567811250687, 51.07441300526261], [-114.13588749244809, 51.07441660948098], [-114.13603945635259, 51.074417447671294], [-114.13615697063506, 51.074420381337404], [-114.13633156567812, 51.07442423701286], [-114.13662401027977, 51.07443295419216], [-114.13695123977959, 51.07443387620151], [-114.13699876517057, 51.07443245127797], [-114.13733253255486, 51.074433624744415], [-114.13739179261029, 51.07443102635443], [-114.1376828122884, 51.07442708685994], [-114.13797475397587, 51.074417950585485], [-114.13809101097286, 51.07441476546228], [-114.13841580972075, 51.07440906576812], [-114.13852075114846, 51.07440705411136], [-114.13882995955646, 51.074405796825886], [-114.13888234645128, 51.07440487481654], [-114.13908560760319, 51.074403366073966], [-114.13923455402255, 51.07442163862288], [-114.13955532945693, 51.0744206327945], [-114.13982103578746, 51.074416022747755], [-114.14013074710965, 51.074409233406186], [-114.14044657722116, 51.07441493310034], [-114.14058906957507, 51.07443370856345], [-114.14074044674635, 51.07446279376745], [-114.1408380959183, 51.07450235635042], [-114.14096466265619, 51.07458332553506], [-114.14113037288189, 51.07474819757044], [-114.14117496460676, 51.07490049675107], [-114.14117177948356, 51.074938382953405], [-114.1411766409874, 51.07512638904154], [-114.14117680862546, 51.07520492747426], [-114.14118569344282, 51.07539779506624], [-114.14118393324316, 51.07543115504086], [-114.14116272702813, 51.07563458383083], [-114.1411610506475, 51.075672302395105], [-114.1411605477333, 51.07573944143951], [-114.14115677587688, 51.07590330764651], [-114.14115568622947, 51.07610170729458], [-114.14114948362112, 51.076300693675876], [-114.14114948362112, 51.076335394755006], [-114.14114965125918, 51.076470259577036], [-114.14115040563047, 51.07657511718571], [-114.14114478975534, 51.07664200477302], [-114.14113808423281, 51.07677385210991], [-114.14112609811127, 51.07695632614195], [-114.14112794212997, 51.076992033049464], [-114.14111997932196, 51.077057495713234], [-114.14110288023949, 51.07722002081573], [-114.1411179676652, 51.07737525366247], [-114.14111905731261, 51.07741054147482], [-114.14111570455134, 51.07747793197632], [-114.14111335761845, 51.07750877737999], [-114.141104221344, 51.07760122977197], [-114.14108318276703, 51.077732322737575], [-114.14108276367188, 51.077795857563615], [-114.14110732264817, 51.07798176817596], [-114.14110681973398, 51.07816943898797], [-114.14109759964049, 51.07824227772653], [-114.14104672148824, 51.078340178355575], [-114.14082954637706, 51.078388877213], [-114.14051053114235, 51.07838158495724], [-114.14045085199177, 51.07837957330048], [-114.14033132605255, 51.078371526673436], [-114.1401522886008, 51.07837202958763], [-114.14003251120448, 51.07837747782469], [-114.13985598832369, 51.07838393189013], [-114.1397429164499, 51.07839114032686], [-114.13963336497545, 51.07839650474489], [-114.13930353708565, 51.07841469347477], [-114.13924863561988, 51.07842248864472], [-114.13899902254343, 51.07848099432886], [-114.13895166479051, 51.07849666848779], [-114.1387983597815, 51.07854159548879], [-114.13865067064762, 51.078567914664745], [-114.13834364153445, 51.078646117821336], [-114.13829033263028, 51.078662211075425], [-114.13813794963062, 51.07871392741799], [-114.13808782584965, 51.07873471453786], [-114.13804021663964, 51.07875273562968], [-114.1377678886056, 51.07886237092316], [-114.13762690499425, 51.07892339117825], [-114.13753051310778, 51.07896622270346], [-114.13731233216822, 51.07910762540996], [-114.13729925639927, 51.079285154119134], [-114.13734787143767, 51.07944566756487], [-114.13735264912248, 51.07947466894984], [-114.13736362941563, 51.07968455180526], [-114.13736664690077, 51.079875910654664], [-114.1373516432941, 51.08004287816584], [-114.13733672350645, 51.08024253509939], [-114.1373426746577, 51.08027648180723], [-114.1373394895345, 51.08043531887233], [-114.1373323649168, 51.08046876266599], [-114.13731392472982, 51.08067252673209], [-114.13730562664568, 51.08086698688567], [-114.13729732856154, 51.08100168406963], [-114.13729070685804, 51.08107049949467], [-114.13726271130145, 51.081276359036565], [-114.13723370991647, 51.08130929991603], [-114.13709406740963, 51.0813763551414], [-114.13693338632584, 51.08139714226127], [-114.13682165555656, 51.081403931602836], [-114.13653424009681, 51.08141424134374], [-114.13642317987978, 51.081413151696324], [-114.13620181381702, 51.08141197822988], [-114.13593426346779, 51.08143645338714], [-114.1358801163733, 51.08144223690033], [-114.13577852770686, 51.08145397156477], [-114.1355796251446, 51.08146017417312], [-114.13531836122274, 51.08145296573639], [-114.13516421802342, 51.08144667930901], [-114.13484469987452, 51.08144952915609], [-114.13478937931359, 51.0814490262419], [-114.13445460610092, 51.08143201097846], [-114.13434186950326, 51.08143108896911], [-114.13401204161346, 51.081443494185805], [-114.13357911631465, 51.081439638510346], [-114.133365964517, 51.081438632681966], [-114.13310344330966, 51.08142874203622], [-114.13305030204356, 51.081423880532384], [-114.13278208114207, 51.08143486082554], [-114.13255241699517, 51.081439051777124], [-114.13238628767431, 51.081428825855255], [-114.13206769153476, 51.08143142424524], [-114.13201555609703, 51.08143695630133], [-114.13175018504262, 51.0814421530813], [-114.13163828663528, 51.08144072815776], [-114.13131047040224, 51.08143393881619], [-114.13099438883364, 51.08139647170901], [-114.13070269860327, 51.08131047338247], [-114.13059708662331, 51.081187427043915], [-114.13049482740462, 51.08098919503391], [-114.13043037056923, 51.08078325167298], [-114.13039332255721, 51.080635730177164], [-114.13036038167775, 51.08061351813376], [-114.13031922653317, 51.08060538768768], [-114.130176063627, 51.080610416829586], [-114.12989560514688, 51.0806389991194], [-114.12955077365041, 51.08065517619252], [-114.12926101125777, 51.08068325556815], [-114.12901366129518, 51.0807029530406], [-114.12873529829085, 51.08079247176647], [-114.1284389141947, 51.08084527775645], [-114.12820086814463, 51.08084410429001], [-114.1281178034842, 51.080741761252284], [-114.12804664112628, 51.08074888586998], [-114.12780717015266, 51.08086061663926], [-114.12751011550426, 51.08091660775244], [-114.12745437584817, 51.080927923321724], [-114.12713552825153, 51.0809757001698], [-114.12703100591898, 51.080986093729734], [-114.12669925019145, 51.08102540485561], [-114.12664250470698, 51.08103194274008], [-114.12631594575942, 51.08104585669935], [-114.12626255303621, 51.08104459941387], [-114.12593230605125, 51.08099078759551], [-114.12571018561721, 51.08088861219585], [-114.12551706656814, 51.08074737712741], [-114.12548404186964, 51.08071468770504], [-114.12529544904828, 51.08057110570371], [-114.12525873631239, 51.080543864518404], [-114.12510216236115, 51.08040480874479], [-114.1250460036099, 51.080349907279015], [-114.12485774606466, 51.080180425196886], [-114.12479530088603, 51.08012963086367], [-114.12467250600457, 51.08001681044698], [-114.1246482823044, 51.0799864679575], [-114.1245932970196, 51.07984355650842], [-114.12457779049873, 51.079805083572865], [-114.12455331534147, 51.07965521514416], [-114.12454216741025, 51.0795406345278], [-114.12450855597854, 51.07934298925102], [-114.12450126372278, 51.079304683953524], [-114.12442658096552, 51.079118521884084], [-114.124411996454, 51.07908935286105], [-114.12427545525134, 51.07889849692583], [-114.12420010194182, 51.07880126684904], [-114.12411636672914, 51.07871468178928], [-114.12398963235319, 51.07857503928244], [-114.12396591156721, 51.07854947447777], [-114.12383574061096, 51.07839273288846], [-114.12370246835053, 51.078217970207334], [-114.12355461157858, 51.078062653541565], [-114.12341505289078, 51.077897027134895], [-114.12332712672651, 51.077736262232065], [-114.12326090969145, 51.077528055757284], [-114.12327348254621, 51.07732689008117], [-114.12328027188778, 51.07729034498334], [-114.12327155470848, 51.07725514099002], [-114.1233030706644, 51.07707208022475], [-114.12332913838327, 51.07704835943878], [-114.12342821247876, 51.0768779553473], [-114.12347565405071, 51.0768140014261], [-114.12362074479461, 51.07666932977736], [-114.12365318275988, 51.07664192095399], [-114.12390153855085, 51.07651283964515], [-114.12393640726805, 51.076487861573696], [-114.1241096612066, 51.07631150633097], [-114.12411871366203, 51.07617395929992], [-114.12408359348774, 51.07609022408724], [-114.12397739477456, 51.075971284881234], [-114.12387513555586, 51.07582560740411], [-114.1237438749522, 51.075664926320314], [-114.12372317165136, 51.07563039287925], [-114.12368578836322, 51.075558979064226], [-114.12360607646406, 51.07536996714771], [-114.1236088424921, 51.07532478868961], [-114.12369274534285, 51.07524105347693], [-114.12396658211946, 51.07521724887192], [-114.12426305003464, 51.075213393196464], [-114.12458156235516, 51.07518455944955], [-114.12468482740223, 51.07517257332802], [-114.1249849833548, 51.075134854763746], [-114.12508472800255, 51.07511758804321], [-114.12532302550972, 51.07507777400315], [-114.12561731413007, 51.07502739876509], [-114.12566970102489, 51.07501583173871], [-114.12587597966194, 51.07497618533671], [-114.12603674456477, 51.074947183951735], [-114.12631343118846, 51.074887085705996], [-114.12641703151166, 51.0748574975878], [-114.12677963264287, 51.07476521283388], [-114.1268347017467, 51.0747538972646], [-114.12711834535003, 51.074696816504], [-114.12717919796705, 51.07468633912504], [-114.12747859954834, 51.07463210821152], [-114.12753936834633, 51.074623139575124], [-114.1275979578495, 51.07461576350033], [-114.12777330726385, 51.074589947238564], [-114.1278778295964, 51.074568992480636], [-114.12815527059138, 51.07452373020351], [-114.12822953425348, 51.07447972521186], [-114.12820966914296, 51.07438584789634], [-114.12806156091392, 51.0741962492466], [-114.1279055736959, 51.074027102440596], [-114.12774841301143, 51.073866337537766], [-114.12768060341477, 51.073799366131425], [-114.12750039249659, 51.07361798174679], [-114.1273928526789, 51.073491079732776], [-114.12735974416137, 51.07345327734947], [-114.12723342888057, 51.073294607922435], [-114.12720677442849, 51.07326208613813], [-114.12705045193434, 51.07308849692345], [-114.12690678611398, 51.07292773202062], [-114.12688247859478, 51.07289747335017], [-114.1267331968993, 51.07271147891879], [-114.12667276337743, 51.07265079393983], [-114.12655960768461, 51.07253051362932], [-114.12640538066626, 51.072374107316136], [-114.12637294270098, 51.072340328246355], [-114.12625006400049, 51.072213342413306], [-114.12613841705024, 51.072085769847035], [-114.12610882893205, 51.07205274514854], [-114.12596608512104, 51.07187991030514], [-114.12592593580484, 51.07182173989713], [-114.12585066631436, 51.07173372991383], [-114.12580699659884, 51.07167405076325], [-114.12567280232906, 51.07153097167611], [-114.12551413290203, 51.07136819511652], [-114.12545688450336, 51.071308683604], [-114.12533459253609, 51.07115596532822], [-114.12530357949436, 51.07111606746912], [-114.12516343407333, 51.07094650156796], [-114.12513342685997, 51.070914985612035], [-114.12495874799788, 51.07075388543308], [-114.12493092007935, 51.0707354452461], [-114.12488079629838, 51.070722956210375], [-114.12483964115381, 51.07072270475328], [-114.12479161284864, 51.070733768865466], [-114.12453588098288, 51.07085078023374], [-114.1244365554303, 51.07090056873858], [-114.1243377327919, 51.07094499282539], [-114.12424519658089, 51.070982376113534], [-114.12402047775686, 51.07109452597797], [-114.12378821521997, 51.07122662477195], [-114.12370481528342, 51.07130130752921], [-114.12362141534686, 51.071374816820025], [-114.12343340925872, 51.07149518094957], [-114.12330625578761, 51.07155527919531], [-114.12321539595723, 51.07158461585641], [-114.12292320281267, 51.071665585041046], [-114.12287710234523, 51.071680672466755], [-114.1226558201015, 51.07175619341433], [-114.12240880541503, 51.07185132801533], [-114.12231828086078, 51.07188426889479], [-114.1221029497683, 51.07199113816023], [-114.12209624424577, 51.07201745733619], [-114.12213178351521, 51.07205668464303], [-114.12216179072857, 51.07216531410813], [-114.12205919623375, 51.07236119918525], [-114.12205014377832, 51.07239388860762], [-114.12207185290754, 51.07254836708307], [-114.12210965529084, 51.072619277983904], [-114.12221820093691, 51.07273863628507], [-114.1223516408354, 51.072925636544824], [-114.12237703800201, 51.07295832596719], [-114.12251894362271, 51.07314918190241], [-114.12265841849148, 51.073297038674355], [-114.12269026972353, 51.073325872421265], [-114.1228646133095, 51.07340080663562], [-114.12313803099096, 51.0733999684453], [-114.1233910806477, 51.07331799343228], [-114.12356123328209, 51.07317164540291], [-114.12359098903835, 51.073123617097735], [-114.12360968068242, 51.073077684268355], [-114.123590067029, 51.07293426990509], [-114.12356978282332, 51.072882721200585], [-114.12350976839662, 51.072786496952176], [-114.12337582558393, 51.072625732049346], [-114.12332888692617, 51.07257133349776], [-114.12315496243536, 51.0723793040961], [-114.1231135558337, 51.072332449257374], [-114.12302537821233, 51.072240164503455], [-114.12298740819097, 51.07219900935888]]}, "properties": {"name": "Dino_Dash_5k_.fit"}}]}