{"type": "FeatureCollection", "features": [{"type": "Feature", "geometry": {"type": "LineString", "coordinates": [[-114.1116829868406, 50.99767165258527], [-114.11166513338685, 50.99769042804837], [-114.11164124496281, 50.99771037697792], [-114.11164124496281, 50.99771037697792], [-114.11159279756248, 50.99773837253451], [-114.11154225468636, 50.99776946939528], [-114.11139925941825, 50.99785940721631], [-114.11134092137218, 50.99788807332516], [-114.11128358915448, 50.99791472777724], [-114.11116439849138, 50.99796158261597], [-114.11110052838922, 50.99798245355487], [-114.11103590391576, 50.99800257012248], [-114.11097312346101, 50.99802017211914], [-114.11091268993914, 50.99803668446839], [-114.11080305464566, 50.998072223737836], [-114.11069710738957, 50.99811145104468], [-114.11064363084733, 50.998130310326815], [-114.11048160865903, 50.998187558725476], [-114.11037046462297, 50.998227121308446], [-114.11031447350979, 50.998247154057026], [-114.11001708358526, 50.99831446073949], [-114.1099630203098, 50.998328207060695], [-114.10974886268377, 50.998330637812614], [-114.10963989794254, 50.99830943159759], [-114.10950528457761, 50.99826391786337], [-114.1094555798918, 50.99824556149542], [-114.10940621048212, 50.998226031661034], [-114.10920755937696, 50.99815118126571], [-114.10889097489417, 50.99809720180929], [-114.10883934237063, 50.99809041246772], [-114.10857698880136, 50.99805009551346], [-114.1084243543446, 50.998008185997605], [-114.10824975930154, 50.99797851406038], [-114.10808455199003, 50.99795571528375], [-114.1079322528094, 50.997941298410296], [-114.10788154229522, 50.99793526344001], [-114.10772362723947, 50.997919170185924], [-114.10752380266786, 50.997882373631], [-114.10723965615034, 50.997814647853374], [-114.10718006081879, 50.9978046733886], [-114.10688518546522, 50.99772789515555], [-114.1068394202739, 50.99771171808243], [-114.10655032843351, 50.997641729190946], [-114.10649827681482, 50.997628485783935], [-114.10620390437543, 50.99756293930113], [-114.10612519830465, 50.99753058515489], [-114.10609250888228, 50.997512228786945], [-114.10586460493505, 50.99744844250381], [-114.10576620139182, 50.997423799708486], [-114.105489179492, 50.99736336618662], [-114.10543117672205, 50.99736060015857], [-114.1051519755274, 50.99733126349747], [-114.10509740933776, 50.997315840795636], [-114.10485098138452, 50.99726278334856], [-114.1048068087548, 50.997249875217676], [-114.10472357645631, 50.99722757935524], [-114.10459147766232, 50.9971881005913], [-114.1044996958226, 50.99716002121568], [-114.1042200755328, 50.997071005403996], [-114.10396710969508, 50.99698475562036], [-114.10391799174249, 50.99696916528046], [-114.10382436588407, 50.996945863589644], [-114.10372478887439, 50.996921891346574], [-114.10358548164368, 50.99687922745943], [-114.10332455299795, 50.996791468933225], [-114.10324811004102, 50.99675903096795], [-114.103211062029, 50.99674042314291], [-114.10297594964504, 50.99664411507547], [-114.10279297269881, 50.9965871181339], [-114.10258493386209, 50.99649801850319], [-114.10250388085842, 50.99645694717765], [-114.10229877568781, 50.99637622945011], [-114.10202242434025, 50.996277909725904], [-114.10198537632823, 50.99625770933926], [-114.10185537301004, 50.99620088003576], [-114.10167935304344, 50.996133824810386], [-114.10157164558768, 50.99607984535396], [-114.10148556344211, 50.99604673683643], [-114.1013547219336, 50.99599175155163], [-114.10111374221742, 50.995887564495206], [-114.10103034228086, 50.995848001912236], [-114.10075248219073, 50.995741887018085], [-114.10059775225818, 50.995671479031444], [-114.1005481313914, 50.99564993754029], [-114.10050538368523, 50.99562931805849], [-114.10042013972998, 50.995585564523935], [-114.10030572675169, 50.99551825784147], [-114.10022593103349, 50.99547735415399], [-114.0999989490956, 50.99537073634565], [-114.09996558912098, 50.99535305052996], [-114.09982519224286, 50.99527660757303], [-114.09978596493602, 50.995257664471865], [-114.09971237182617, 50.995222041383386], [-114.09959963522851, 50.995177114382386], [-114.0994365233928, 50.995082231238484], [-114.09919411875308, 50.99495105445385], [-114.09915908239782, 50.99493504501879], [-114.09912345930934, 50.994916604831815], [-114.09887870773673, 50.99480152130127], [-114.0988408215344, 50.99478065036237], [-114.09872707910836, 50.99471954628825], [-114.09858349710703, 50.994632206857204], [-114.09836858510971, 50.99450396373868], [-114.09830639138818, 50.99445836618543], [-114.09817739389837, 50.99436524324119], [-114.09813959151506, 50.994344875216484], [-114.09806448966265, 50.99431277252734], [-114.09797815605998, 50.99429567344487], [-114.09787313081324, 50.994288213551044], [-114.09781881608069, 50.99428008310497], [-114.09755495376885, 50.99418939091265], [-114.09742059186101, 50.99410850554705], [-114.09738639369607, 50.99408579058945], [-114.09734875895083, 50.99406466819346], [-114.09731514751911, 50.99404279142618], [-114.09714164212346, 50.99392091855407], [-114.09704994410276, 50.99384816363454], [-114.09699554555118, 50.99380508065224], [-114.09696511924267, 50.993756633251905], [-114.09697961993515, 50.993734085932374], [-114.09705656580627, 50.993715561926365], [-114.09711138345301, 50.993719417601824], [-114.097262006253, 50.99375193938613], [-114.09744389355183, 50.993827041238546], [-114.09747515805066, 50.99384388886392], [-114.09766165539622, 50.99392309784889], [-114.09785728901625, 50.99390390329063], [-114.09789467230439, 50.99389426410198], [-114.09801444970071, 50.99386299960315], [-114.09809550270438, 50.99380281753838], [-114.09813288599253, 50.99374992772937], [-114.09822341054678, 50.993664264678955], [-114.09829306416214, 50.993610955774784], [-114.098477717489, 50.99350433796644], [-114.09856019541621, 50.99343057721853], [-114.09864636138082, 50.993375424295664], [-114.09881668165326, 50.99333083257079], [-114.0989077091217, 50.99330635741353], [-114.0989994071424, 50.99325564689934], [-114.09905045293272, 50.993216251954436], [-114.09910418093204, 50.99317819811404], [-114.09923669882119, 50.9930660482496], [-114.09941364079714, 50.99292431026697], [-114.09944431856275, 50.99289748817682], [-114.09954238682985, 50.99283386953175], [-114.09961656667292, 50.99276689812541], [-114.09962436184287, 50.992734376341105], [-114.09960298798978, 50.992609737440944], [-114.09959209151566, 50.99256028421223], [-114.09963165409863, 50.99247126840055], [-114.0996918361634, 50.99230262450874], [-114.09968437626958, 50.99227823317051], [-114.09956057555974, 50.992137836292386], [-114.09940576180816, 50.99198277108371], [-114.09937877207994, 50.99195444025099], [-114.09931641072035, 50.99186869338155], [-114.0992430690676, 50.991751262918115], [-114.0991442464292, 50.991558311507106], [-114.09915832802653, 50.99139243364334], [-114.09910912625492, 50.99131163209677], [-114.09903603605926, 50.99125329405069], [-114.09885758534074, 50.99108850583434], [-114.09885163418949, 50.99106126464903], [-114.0988680627197, 50.99100653082132], [-114.09889027476311, 50.9909282438457], [-114.0989010874182, 50.99087334237993], [-114.09893084317446, 50.990765215829015], [-114.09893402829766, 50.99073068238795], [-114.09893838688731, 50.99064426496625], [-114.0989283286035, 50.99055441096425], [-114.09892732277513, 50.99042725749314], [-114.09894274547696, 50.99033731967211], [-114.09895112738013, 50.990276047959924], [-114.0989439189434, 50.990129532292485], [-114.09891500137746, 50.989936999976635], [-114.09890125505626, 50.98991076461971], [-114.09880427643657, 50.9897799231112], [-114.09878407604992, 50.98974958062172], [-114.09866731613874, 50.989564675837755], [-114.0986404940486, 50.98950834944844], [-114.09859967418015, 50.98941866308451], [-114.09858936443925, 50.98931330256164], [-114.09859808161855, 50.98928723484278], [-114.09864309243858, 50.989164942875504], [-114.0986611135304, 50.98913309164345], [-114.09879765473306, 50.988963190466166], [-114.09890762530267, 50.98881374113262], [-114.0988868381828, 50.988767724484205], [-114.09889505244792, 50.98871039226651], [-114.09886697307229, 50.98858457989991], [-114.09884090535343, 50.98856044001877], [-114.09876228310168, 50.98844116553664], [-114.09875364974141, 50.98828878253698], [-114.09875499084592, 50.98825936205685], [-114.09876488149166, 50.98820068873465], [-114.09879715181887, 50.988082168623805], [-114.09880897030234, 50.98802575841546], [-114.09883948042989, 50.98792903125286], [-114.09885155037045, 50.9879064001143], [-114.098882060498, 50.987744964659214], [-114.09891223534942, 50.987670784816146], [-114.0989721659571, 50.98756399936974], [-114.09903234802186, 50.98740180954337], [-114.09905414097011, 50.98737574182451], [-114.09912371076643, 50.987298963591456], [-114.09918766468763, 50.987209528684616], [-114.09923896193504, 50.987158231437206], [-114.09934239462018, 50.987053541466594], [-114.09936896525323, 50.98702604882419], [-114.09948530606925, 50.98687257617712], [-114.09947658888996, 50.98684416152537], [-114.09943426027894, 50.98672756925225], [-114.09938120283186, 50.98665498197079], [-114.09933443181217, 50.98659488372505], [-114.09929721616209, 50.986535120755434], [-114.09925145097077, 50.986441327258945], [-114.09921574406326, 50.986346108838916], [-114.09923334605992, 50.98627855069935], [-114.09931557253003, 50.98624024540186], [-114.0993651933968, 50.986228343099356], [-114.09946393221617, 50.98620671778917], [-114.09968353807926, 50.986149217933416], [-114.09971656277776, 50.986131615936756], [-114.09995066933334, 50.9860550891608], [-114.09998780116439, 50.986040253192186], [-114.10020254552364, 50.98595869727433], [-114.10043614916503, 50.98587269894779], [-114.10055466927588, 50.98584705032408], [-114.10063044168055, 50.985825676470995], [-114.10066807642579, 50.985813941806555], [-114.10069489851594, 50.98579667508602], [-114.1007471177727, 50.98572978749871], [-114.1007484588772, 50.98560162819922], [-114.10074133425951, 50.98551370203495], [-114.10075793042779, 50.9854057431221], [-114.10075910389423, 50.985381016507745], [-114.10074829123914, 50.985265178605914], [-114.10074653103948, 50.98523332737386], [-114.10071333870292, 50.98503727465868], [-114.10071702674031, 50.985004333779216], [-114.10072172060609, 50.98494239151478], [-114.10071878693998, 50.98481071181595], [-114.10073328763247, 50.98462991416454], [-114.10073261708021, 50.98457895219326], [-114.10070990212262, 50.984491193667054], [-114.10070118494332, 50.98446956835687], [-114.1006797272712, 50.98443578928709], [-114.1005710978061, 50.984269408509135], [-114.1005742829293, 50.98424032330513], [-114.10070260986686, 50.98415298387408], [-114.1008544061333, 50.9840261656791], [-114.1009231377393, 50.983875123783946], [-114.10094501450658, 50.983817372471094], [-114.10096026957035, 50.98376490175724], [-114.100969908759, 50.983623415231705], [-114.10094995982945, 50.98353532142937], [-114.10089631564915, 50.98340003751218], [-114.10075365565717, 50.983215384185314], [-114.10073454491794, 50.98318923264742], [-114.10069271922112, 50.98313734866679], [-114.10067033953965, 50.98311061039567], [-114.10059255547822, 50.98302033729851], [-114.10047193989158, 50.98295562900603], [-114.10038099624217, 50.9829275496304], [-114.10030296072364, 50.98288622684777], [-114.1002861969173, 50.98282461985946], [-114.10029524937272, 50.982794696465135], [-114.10039264708757, 50.98272688686848], [-114.10055701620877, 50.98255212418735], [-114.10068467259407, 50.982395969331264], [-114.10075013525784, 50.98232095129788], [-114.10081492736936, 50.98224928602576], [-114.1008575912565, 50.98220360465348], [-114.1009511332959, 50.9820540715009], [-114.1008710861206, 50.981908896937966], [-114.1007177811116, 50.981798842549324], [-114.10071543417871, 50.98177042789757], [-114.10074234008789, 50.9816914703697], [-114.10083035007119, 50.98156507126987], [-114.10090872086585, 50.981528190895915], [-114.10095440223813, 50.981482677161694], [-114.10093579441309, 50.98143607378006], [-114.10085926763713, 50.98139123059809], [-114.10076849162579, 50.98136097192764], [-114.10059129819274, 50.98130070604384], [-114.10035300068557, 50.9812078345567], [-114.10007723607123, 50.98110482096672], [-114.10003742203116, 50.981089901179075], [-114.09996491856873, 50.98105285316706], [-114.09984891302884, 50.98100616596639], [-114.09977045841515, 50.98097733221948], [-114.09956937655807, 50.980920838192105], [-114.09949796274304, 50.980897871777415], [-114.09938489086926, 50.98085353150964], [-114.09931062720716, 50.98083324730396], [-114.09927676431835, 50.98082268610597], [-114.09916612319648, 50.98077977076173], [-114.09909311681986, 50.98074557259679], [-114.09905824810266, 50.98072956316173], [-114.09899043850601, 50.98069863393903], [-114.0988059528172, 50.980614898726344], [-114.09870017319918, 50.98055513575673], [-114.09861333668232, 50.98049042746425], [-114.09854829311371, 50.98044499754906], [-114.09846363589168, 50.98037735559046], [-114.09839088097215, 50.980304768309], [-114.09836699254811, 50.98027844913304], [-114.09824503585696, 50.98013972863555], [-114.09822248853743, 50.980113660916686], [-114.09812391735613, 50.97996429540217], [-114.09809399396181, 50.97990461625159], [-114.0980688482523, 50.97976447083056], [-114.09806524403393, 50.97971174865961], [-114.09806365147233, 50.97968626767397], [-114.09802744165063, 50.9795584436506], [-114.09801377914846, 50.97951921634376], [-114.09799508750439, 50.97946414723992], [-114.09794923849404, 50.97937563434243], [-114.0979478135705, 50.979246804490685], [-114.09795921295881, 50.97921411506832], [-114.09799022600055, 50.97915703430772], [-114.09805912524462, 50.97901253029704], [-114.0981444530189, 50.97881396301091], [-114.09815786406398, 50.97878621891141], [-114.09817068837583, 50.978759145364165], [-114.09826087765396, 50.97856971435249], [-114.09827252849936, 50.9785430599004], [-114.09837101586163, 50.978351617231965], [-114.09838476218283, 50.97832596860826], [-114.09842901863158, 50.978241227567196], [-114.09845835529268, 50.978184565901756], [-114.0984866861254, 50.978126814588904], [-114.09851719625294, 50.9780702367425], [-114.09861844964325, 50.9778730943799], [-114.0986835770309, 50.97774024121463], [-114.09871241077781, 50.977688021957874], [-114.09872523508966, 50.97766002640128], [-114.09881358034909, 50.977473109960556], [-114.09884308464825, 50.97742013633251], [-114.09886688925326, 50.9773690905422], [-114.09889010712504, 50.97731594927609], [-114.09900183789432, 50.97711117938161], [-114.09902941435575, 50.97706046886742], [-114.09910912625492, 50.97690649330616], [-114.09912278875709, 50.97688294015825], [-114.09920719452202, 50.97672871313989], [-114.09921985119581, 50.976698119193316], [-114.09926603548229, 50.976587142795324], [-114.09929084591568, 50.97653609700501], [-114.09930425696075, 50.97651178948581], [-114.09931641072035, 50.97648681141436], [-114.09933879040182, 50.9764345921576], [-114.09937868826091, 50.97635965794325], [-114.09939385950565, 50.97633576951921], [-114.09942520782351, 50.97628698684275], [-114.09948362968862, 50.97618439234793], [-114.09950106404722, 50.97615706734359], [-114.09951682202518, 50.97612923942506], [-114.0996125433594, 50.975943664088845], [-114.09967239014804, 50.97574635408819], [-114.09968429245055, 50.97571902908385], [-114.09970675595105, 50.97566345706582], [-114.09973022527993, 50.97561199218035], [-114.09976249560714, 50.97552674822509], [-114.09980348311365, 50.975440917536616], [-114.09985897131264, 50.97527143545449], [-114.09988914616406, 50.97519675269723], [-114.09990264102817, 50.97516808658838], [-114.09993357025087, 50.97511217929423], [-114.09994865767658, 50.97508644685149], [-114.10002820193768, 50.974911684170365], [-114.10005426965654, 50.974854938685894], [-114.10011646337807, 50.97475016489625], [-114.10016633570194, 50.974663915112615], [-114.10018678754568, 50.97463340498507], [-114.10021235235035, 50.97460398450494], [-114.10035132430494, 50.9744833689183], [-114.1003792360425, 50.97446174360812], [-114.10051292739809, 50.97434850409627], [-114.10058601759374, 50.97427717410028], [-114.10068416967988, 50.974174747243524], [-114.10076388157904, 50.974105428904295], [-114.10079137422144, 50.97408179193735], [-114.10081903450191, 50.97405714914203], [-114.1010320186615, 50.97398799844086], [-114.10113528370857, 50.973981292918324], [-114.10118817351758, 50.97397877834737], [-114.10139185376465, 50.97396293655038], [-114.10158706828952, 50.97394994460046], [-114.1016816161573, 50.97394298762083], [-114.10177448764443, 50.973937371745706], [-114.10181882791221, 50.97393519245088], [-114.10213608294725, 50.973927062004805], [-114.10218042321503, 50.97392588853836], [-114.10231126472354, 50.97392681054771], [-114.1024483088404, 50.973929492756724], [-114.102500109002, 50.973931420594454], [-114.1025947406888, 50.97393125295639], [-114.10282088443637, 50.97393812611699], [-114.10291543230414, 50.97394349053502], [-114.1030057054013, 50.97394508309662], [-114.10309916362166, 50.973942736163735], [-114.10333150997758, 50.973944664001465], [-114.10342480055988, 50.973948100581765], [-114.10369486548007, 50.9739635232836], [-114.10396778024733, 50.97396939061582], [-114.10405738279223, 50.973978443071246], [-114.10431529395282, 50.97399663180113], [-114.10436105914414, 50.9739981405437], [-114.10466691479087, 50.973979867994785], [-114.10481963306665, 50.973936365917325], [-114.10488836467266, 50.973918344825506], [-114.10495315678418, 50.97389856353402], [-114.10506731830537, 50.97387886606157], [-114.10520394332707, 50.97386101260781], [-114.10529874265194, 50.97385447472334], [-114.10552052780986, 50.97385363653302], [-114.10560853779316, 50.97385564818978], [-114.10580995492637, 50.97385028377175], [-114.10596342757344, 50.9738390520215], [-114.10604724660516, 50.97384131513536], [-114.10613106563687, 50.973846511915326], [-114.10620960406959, 50.9738546423614], [-114.10633692517877, 50.97386662848294], [-114.10642485134304, 50.973883643746376], [-114.1065957583487, 50.9739254694432], [-114.10663431510329, 50.97394055686891], [-114.10689448937774, 50.97403787076473], [-114.10716664977372, 50.97409310750663], [-114.10724652931094, 50.97411381080747], [-114.10742430947721, 50.97418639808893], [-114.10749957896769, 50.97421556711197], [-114.10775925032794, 50.974295446649194], [-114.10786628723145, 50.974329225718975], [-114.10799972712994, 50.974384881556034], [-114.10824162885547, 50.974492924287915], [-114.10827834159136, 50.97450985573232], [-114.10841278731823, 50.97457280382514], [-114.10847607068717, 50.97459920682013], [-114.1086664237082, 50.97466743551195], [-114.1087509971112, 50.974694006145], [-114.10887312144041, 50.97473055124283], [-114.10895668901503, 50.9747579600662], [-114.10924351774156, 50.974827110767365], [-114.10931996069849, 50.974854016676545], [-114.10944811999798, 50.97492911852896], [-114.10944811999798, 50.97492911852896], [-114.10963453352451, 50.97507429309189], [-114.10979278385639, 50.97520303912461], [-114.10984952934086, 50.97524645738304], [-114.10996897146106, 50.97536045126617], [-114.10998581908643, 50.97538308240473], [-114.11007265560329, 50.975438402965665], [-114.11013962700963, 50.97546656616032], [-114.11021732725203, 50.97548366524279], [-114.11034942604601, 50.975514175370336], [-114.11043827421963, 50.97554560750723], [-114.11048261448741, 50.975563544780016], [-114.11073088645935, 50.97567259334028], [-114.11098284646869, 50.975730093196034], [-114.11103238351643, 50.975729087367654], [-114.11124436184764, 50.97570830024779], [-114.11152859218419, 50.97574316896498], [-114.11166991107166, 50.975841991603374], [-114.1116898600012, 50.9758684784174], [-114.11173285916448, 50.975949447602034], [-114.11175666376948, 50.97603687085211], [-114.11183444783092, 50.9761774353683], [-114.11186512559652, 50.97620325163007], [-114.11190820857882, 50.97622336819768], [-114.11199647001922, 50.976257817819715], [-114.11207978613675, 50.97627483308315], [-114.11228070035577, 50.97627826966345], [-114.11252645775676, 50.97625647671521], [-114.11256761290133, 50.97625656053424], [-114.11271689459682, 50.97629126161337], [-114.1128162201494, 50.97640433348715], [-114.11285804584622, 50.976481195539236], [-114.11288671195507, 50.9765244461596], [-114.1129303816706, 50.97659426741302], [-114.1129713691771, 50.97669049166143], [-114.11301529034972, 50.97675352357328], [-114.113031886518, 50.976778166368604], [-114.11313498392701, 50.97690699622035], [-114.11315216682851, 50.97693482413888], [-114.11326607689261, 50.977105647325516], [-114.11328443326056, 50.97713171504438], [-114.11341737024486, 50.977283511310816], [-114.11345324479043, 50.97734084352851], [-114.11357092671096, 50.977513929829], [-114.11359121091664, 50.9775400813669], [-114.11365072242916, 50.97761543467641], [-114.11374585703015, 50.97770964726806], [-114.11380025558174, 50.97775340080261], [-114.11394543014467, 50.97781551070511], [-114.11406822502613, 50.977798998355865], [-114.11415070295334, 50.97778106108308], [-114.11428154446185, 50.97774996422231], [-114.11437248811126, 50.977737894281745], [-114.1146310698241, 50.9776954818517], [-114.11489493213594, 50.97762683406472], [-114.11503214389086, 50.9776088129729], [-114.11517849192023, 50.977610321715474], [-114.11547722294927, 50.9776140935719], [-114.11552860401571, 50.97761878743768], [-114.11572708748281, 50.97763697616756], [-114.11591241136193, 50.977648459374905], [-114.11603964865208, 50.97763982601464], [-114.11617929115891, 50.97763856872916], [-114.11646134220064, 50.977645525708795], [-114.11659402772784, 50.97764234058559], [-114.11678069271147, 50.97766379825771], [-114.11710163578391, 50.97768089734018], [-114.11714488640428, 50.97768743522465], [-114.11727966740727, 50.97771476022899], [-114.11747429519892, 50.97772540524602], [-114.11761234514415, 50.97766522318125], [-114.11761812865734, 50.97763890400529], [-114.11759943701327, 50.97756430506706], [-114.11757395602763, 50.97737202420831], [-114.11760924383998, 50.97721151076257], [-114.11762064322829, 50.977180832996964], [-114.11766146309674, 50.977020654827356], [-114.11766984499991, 50.976987797766924], [-114.11768979392946, 50.97692451439798], [-114.11772726103663, 50.97683214582503], [-114.11781552247703, 50.9766885638237], [-114.11785181611776, 50.97653869539499], [-114.11783723160625, 50.97648220136762], [-114.11776749417186, 50.97634616307914], [-114.11772248335183, 50.976211465895176], [-114.11772826686502, 50.976155726239085], [-114.11774628795683, 50.97606738097966], [-114.11780093796551, 50.97594894468784], [-114.11781921051443, 50.975922122597694], [-114.11785902455449, 50.97581206820905], [-114.11786740645766, 50.975759010761976], [-114.1178878583014, 50.97559791058302], [-114.11789263598621, 50.975568322464824], [-114.11795692518353, 50.975390458479524], [-114.11805415526032, 50.97525743767619], [-114.11811676807702, 50.975184263661504], [-114.11817183718085, 50.97513145767152], [-114.1181968152523, 50.97510354593396], [-114.118373086676, 50.97496465779841], [-114.118626806885, 50.97487430088222], [-114.11867609247565, 50.97486558370292], [-114.11897071637213, 50.97482451237738], [-114.11906132474542, 50.974798779934645], [-114.11928319372237, 50.974729964509606], [-114.11956465803087, 50.97466743551195], [-114.11961612291634, 50.974656622856855], [-114.11977504380047, 50.97463793121278], [-114.11991275846958, 50.97461027093232], [-114.12013856694102, 50.97461136057973], [-114.12025733850896, 50.9746387694031], [-114.12042296491563, 50.97469652071595], [-114.12066386081278, 50.97480749711394], [-114.12069872952998, 50.97482442855835], [-114.12073359824717, 50.974838929250836], [-114.12097876891494, 50.97494646906853], [-114.12101154215634, 50.97496373578906], [-114.12121480330825, 50.97506180405617], [-114.12149383686483, 50.97516942769289], [-114.12161361426115, 50.97521301358938], [-114.12175032310188, 50.9752275981009], [-114.12179835140705, 50.975227346643806], [-114.12190061062574, 50.975225837901235], [-114.12199951708317, 50.97522650845349], [-114.12208995781839, 50.97523598000407], [-114.12218827754259, 50.97524721175432], [-114.12241626530886, 50.97526372410357], [-114.12268213927746, 50.97526095807552], [-114.1228199377656, 50.97525794059038], [-114.1229164134711, 50.97525215707719], [-114.12317734211683, 50.97525341436267], [-114.12326074205339, 50.97526070661843], [-114.12342854775488, 50.975279649719596], [-114.12360825575888, 50.97529104910791], [-114.1237832698971, 50.97532139159739], [-114.12393908947706, 50.97534620203078], [-114.1240924783051, 50.97539288923144], [-114.12420513108373, 50.97543094307184], [-114.12436958402395, 50.97548509016633], [-114.12458390928805, 50.97554812207818], [-114.12466521374881, 50.975567903369665], [-114.1248626075685, 50.97562431357801], [-114.12513074465096, 50.97570016980171], [-114.12533006630838, 50.97574844956398], [-114.12536577321589, 50.975760938599706], [-114.12547800689936, 50.97579337656498], [-114.12559166550636, 50.975827910006046], [-114.12563248537481, 50.97583930939436], [-114.12584722973406, 50.97590192221105], [-114.12597228772938, 50.97593620419502], [-114.12616205401719, 50.97599680535495], [-114.12620211951435, 50.976008623838425], [-114.12631586194038, 50.976052628830075], [-114.12645433098078, 50.97613099962473], [-114.12648987025023, 50.976147931069136], [-114.12673369981349, 50.976250525563955], [-114.12683269008994, 50.976287657395005], [-114.12697484716773, 50.9763362724334], [-114.1271576564759, 50.976397125050426], [-114.12731942720711, 50.97645068541169], [-114.12744825705886, 50.976485470309854], [-114.1275236941874, 50.976506592705846], [-114.12764112465084, 50.97654439508915], [-114.12791169248521, 50.97662712447345], [-114.12801839411259, 50.97666182555258], [-114.12808335386217, 50.976687306538224], [-114.12814621813595, 50.97671362571418], [-114.12817966192961, 50.97673072479665], [-114.12826331332326, 50.97679316997528], [-114.1284478828311, 50.97691395319998], [-114.12853999994695, 50.976960053667426], [-114.12863681092858, 50.97701436839998], [-114.12890134379268, 50.977129535749555], [-114.1291815508157, 50.97723447717726], [-114.12922153249383, 50.977248307317495], [-114.12948430515826, 50.97734712995589], [-114.12952596321702, 50.97736272029579], [-114.12963568232954, 50.97741208970547], [-114.12977834232152, 50.977475456893444], [-114.12996509112418, 50.9775467030704], [-114.13000264205039, 50.97755944356322], [-114.13025409914553, 50.977662205696106], [-114.13053715601563, 50.977764213457704], [-114.13058191537857, 50.97777770832181], [-114.13083169609308, 50.97786018624902], [-114.13086907938123, 50.977874770760536], [-114.13106068968773, 50.9779457654804], [-114.13113503716886, 50.977969989180565], [-114.13121181540191, 50.977997900918126], [-114.13131943903863, 50.978041822090745], [-114.13138934411108, 50.978071158751845], [-114.13142731413245, 50.97808021120727], [-114.13158103823662, 50.97813343629241], [-114.1316634323448, 50.978166460990906], [-114.1318619158119, 50.97823862917721], [-114.13194363936782, 50.97826452925801], [-114.1320672724396, 50.97830300219357], [-114.13215293549001, 50.97832848317921], [-114.13227011449635, 50.9783670399338], [-114.13238259963691, 50.97840869799256], [-114.13249315693974, 50.97843820229173], [-114.13252601400018, 50.978453708812594], [-114.13258787244558, 50.97848757170141], [-114.13269516080618, 50.978525625541806], [-114.13277101702988, 50.97855353727937], [-114.13280731067061, 50.9785692114383], [-114.13308165036142, 50.978678008541465], [-114.13312632590532, 50.97869242541492], [-114.13316513411701, 50.97870709374547], [-114.13328750990331, 50.97875294275582], [-114.13341893814504, 50.97879158332944], [-114.13346135057509, 50.978807006031275], [-114.1337354388088, 50.97890390083194], [-114.13377592340112, 50.97892410121858], [-114.13386083208025, 50.97896131686866], [-114.13396946154535, 50.979017140343785], [-114.1340499278158, 50.97905737347901], [-114.1341926716268, 50.97912736237049], [-114.13422871381044, 50.979143707081676], [-114.13442535325885, 50.979248313233256], [-114.1345917340368, 50.97937471233308], [-114.13465417921543, 50.97940907813609], [-114.13477538153529, 50.979504715651274], [-114.13498400710523, 50.97966095432639], [-114.13501636125147, 50.97967864014208], [-114.13517461158335, 50.979765644297004], [-114.13543369621038, 50.97984753549099], [-114.1354781202972, 50.979863377287984], [-114.13565631955862, 50.979907382279634], [-114.13570183329284, 50.97991593182087], [-114.13593786768615, 50.9799300134182], [-114.13612386211753, 50.97985239699483], [-114.13616325706244, 50.97983663901687], [-114.1364013031125, 50.979760866612196], [-114.13647908717394, 50.97973111085594], [-114.1367052309215, 50.979637149721384], [-114.13674412295222, 50.97962365485728], [-114.1368196438998, 50.97959431819618], [-114.13701703771949, 50.97951527684927], [-114.13728835992515, 50.97941804677248], [-114.13736245594919, 50.97937881946564], [-114.13751316256821, 50.97931553609669], [-114.1377541422844, 50.9792148694396], [-114.13779303431511, 50.97919810563326], [-114.13783578202128, 50.97918352112174], [-114.13795338012278, 50.979145215824246], [-114.13806804455817, 50.97910682670772], [-114.13818539120257, 50.979066006839275], [-114.13829837925732, 50.97902501933277], [-114.13833819329739, 50.97901211120188], [-114.13857640698552, 50.97893876954913], [-114.13861622102559, 50.97892737016082], [-114.13873021490872, 50.97889048978686], [-114.13887773640454, 50.9788245242089], [-114.13902693428099, 50.97875654697418], [-114.13906037807465, 50.97873534075916], [-114.13925517350435, 50.97861212678254], [-114.13940571248531, 50.97850542515516], [-114.13952984847128, 50.97843359224498], [-114.13963118568063, 50.97834549844265], [-114.13967343047261, 50.97829814068973], [-114.13971290923655, 50.97824483178556], [-114.13978608325124, 50.977833112701774], [-114.13997584953904, 50.97772506996989], [-114.14001205936074, 50.97766421735287], [-114.14005262777209, 50.97760965116322], [-114.14008414372802, 50.97758760675788], [-114.14010954089463, 50.977564137429], [-114.14023216813803, 50.97742600366473], [-114.14030433632433, 50.97732282243669], [-114.14035722613335, 50.977213606238365], [-114.14039486087859, 50.977136911824346], [-114.14042361080647, 50.97693792544305], [-114.14044624194503, 50.97674095071852], [-114.140451438725, 50.97671848721802], [-114.14044741541147, 50.97652570344508], [-114.14045554585755, 50.97639243118465], [-114.14048127830029, 50.976282712072134], [-114.14050231687725, 50.97610702738166], [-114.14050868712366, 50.97605128772557], [-114.14051078259945, 50.97602304071188], [-114.14051312953234, 50.97593612037599], [-114.14051095023751, 50.975815672427416], [-114.1405098605901, 50.9757889341563], [-114.14049644954503, 50.97564141266048], [-114.14049158804119, 50.975550804287195], [-114.14051782339811, 50.97542247734964], [-114.14052251726389, 50.975373443216085], [-114.14051262661815, 50.97520203329623], [-114.1405080165714, 50.97515031695366], [-114.14052058942616, 50.974960466846824], [-114.14052804931998, 50.97487078048289], [-114.14054229855537, 50.97478939220309], [-114.14055151864886, 50.974667854607105], [-114.14055168628693, 50.97463591955602], [-114.14056442677975, 50.97454698756337], [-114.14056543260813, 50.974514884874225], [-114.14057741872966, 50.974397622048855], [-114.14059896022081, 50.974288154393435], [-114.1405999660492, 50.9742296487093], [-114.14058362133801, 50.97409009002149], [-114.14056995883584, 50.9740309137851], [-114.14053768850863, 50.97386763431132], [-114.14053902961314, 50.9737288299948], [-114.14053450338542, 50.97367535345256], [-114.14052302017808, 50.973590863868594], [-114.14052142761648, 50.973472679033875], [-114.14052310399711, 50.97344342619181], [-114.14051522500813, 50.97326028160751], [-114.14050608873367, 50.97320085391402], [-114.14050265215337, 50.973172606900334], [-114.1404945217073, 50.97308878786862], [-114.14048186503351, 50.973014272749424], [-114.14048186503351, 50.97291109152138], [-114.14046267047524, 50.972726522013545], [-114.14044766686857, 50.9726183116436], [-114.14044355973601, 50.97248747013509], [-114.14044003933668, 50.97246282733977], [-114.14042428135872, 50.97241153009236], [-114.14040802046657, 50.97233961336315], [-114.14040684700012, 50.97231614403427], [-114.1404025722295, 50.97226752899587], [-114.14039351977408, 50.97222008742392], [-114.14037415757775, 50.972120175138116], [-114.14036929607391, 50.972046330571175], [-114.1403645183891, 50.971949100494385], [-114.14037072099745, 50.97189771942794], [-114.14036259055138, 50.97173477523029], [-114.14035370573401, 50.971676521003246], [-114.14034850895405, 50.971647687256336], [-114.14032990112901, 50.97153662703931], [-114.14032780565321, 50.97148482687771], [-114.14030098356307, 50.97130352631211], [-114.14030249230564, 50.97127787768841], [-114.14029092527926, 50.97116379998624], [-114.14031246677041, 50.97108266316354], [-114.14031757973135, 50.97104888409376], [-114.14032730273902, 50.97099356353283], [-114.14034113287926, 50.97083053551614], [-114.14033249951899, 50.97064630128443], [-114.1403304040432, 50.97062065266073], [-114.14031263440847, 50.97041881643236], [-114.14031263440847, 50.97041881643236], [-114.14029243402183, 50.97022728994489], [-114.1402804479003, 50.97014430910349], [-114.1402786038816, 50.970115726813674], [-114.14027843624353, 50.97003157250583], [-114.14027977734804, 50.969974575564265], [-114.14027743041515, 50.969949597492814], [-114.1402833815664, 50.96975823864341], [-114.14028505794704, 50.9697325900197], [-114.14028505794704, 50.969677437096834], [-114.14027298800647, 50.96951566636562], [-114.14026200771332, 50.969359846785665], [-114.14025438018143, 50.96926680766046], [-114.14024809375405, 50.96907922066748], [-114.1402474232018, 50.969050051644444], [-114.14024608209729, 50.96902390010655], [-114.14023166522384, 50.968826338648796], [-114.14021724835038, 50.96876464784145], [-114.1402180865407, 50.96865392290056], [-114.14022931829095, 50.96844915300608], [-114.1402339283377, 50.96842241473496], [-114.14023593999445, 50.968280928209424], [-114.14023635908961, 50.96819174475968], [-114.1402508597821, 50.96805193461478], [-114.14025974459946, 50.96800264902413], [-114.14026041515172, 50.9678659401834], [-114.14027340710163, 50.96768153831363], [-114.14028463885188, 50.967623787000775], [-114.14028539322317, 50.96749210730195], [-114.14028095081449, 50.96743770875037], [-114.14027114398777, 50.96723553724587], [-114.14025848731399, 50.967072090134025], [-114.14024105295539, 50.966877629980445], [-114.14022076874971, 50.966679230332375], [-114.14020861499012, 50.96661971881986], [-114.14021641016006, 50.966423163190484], [-114.14021741598845, 50.96636583097279], [-114.14023770019412, 50.966173466295004], [-114.14026586338878, 50.9659665171057], [-114.1402609180659, 50.965937934815884], [-114.14023409597576, 50.96572956070304], [-114.14023015648127, 50.965697625651956], [-114.14022437296808, 50.965665858238935], [-114.14017332717776, 50.96547349356115], [-114.14016729220748, 50.96544658765197], [-114.14012538269162, 50.96525405533612], [-114.1401179227978, 50.96522614359856], [-114.14002706296742, 50.965029168874025], [-114.14000644348562, 50.96499991603196], [-114.13989907130599, 50.964830350130796], [-114.1398642025888, 50.96477762795985], [-114.1398327704519, 50.96460529603064], [-114.13981290534139, 50.96439708955586], [-114.13981265388429, 50.96436582505703], [-114.13980628363788, 50.96420455724001], [-114.13980879820883, 50.964036248624325], [-114.14009512402117, 50.96361665055156], [-114.14004600606859, 50.96352922730148], [-114.13998397998512, 50.963423950597644], [-114.13998004049063, 50.96331590786576], [-114.14000300690532, 50.963184563443065], [-114.14001214317977, 50.96303477883339], [-114.14001046679914, 50.962903602048755], [-114.14001599885523, 50.96284819766879], [-114.14004407823086, 50.96265516243875], [-114.14003401994705, 50.962542509660125], [-114.1400243807584, 50.96248643472791], [-114.14006939157844, 50.96234821714461], [-114.14009939879179, 50.96216440200806], [-114.14010794833302, 50.962081253528595], [-114.14011331275105, 50.961962481960654], [-114.14011884480715, 50.96182074397802], [-114.14011733606458, 50.961787635460496], [-114.14012026973069, 50.96160591579974], [-114.14010870270431, 50.96148991025984], [-114.14010711014271, 50.96143123693764], [-114.14011247456074, 50.96123384311795], [-114.14011138491333, 50.96120576374233], [-114.14012580178678, 50.96099956892431], [-114.1401734109968, 50.960872918367386], [-114.14023920893669, 50.960792619735], [-114.14032763801515, 50.96064493060112], [-114.14035052061081, 50.96061794087291], [-114.14048890583217, 50.9604213014245], [-114.14050575345755, 50.960392551496625], [-114.14061756804585, 50.96022139303386], [-114.14066936820745, 50.96003204584122], [-114.14067339152098, 50.9598258510232], [-114.1406480781734, 50.95964564010501], [-114.14063877426088, 50.9596133697778], [-114.14061815477908, 50.95943911001086], [-114.1405790951103, 50.95924314111471], [-114.14054774679244, 50.95905236899853], [-114.14054783061147, 50.95902529545128], [-114.14049485698342, 50.95884039066732], [-114.140491085127, 50.95881214365363], [-114.14044305682182, 50.958638889715075], [-114.14043132215738, 50.95858063548803], [-114.14043073542416, 50.958421882241964], [-114.14042880758643, 50.958392629399896], [-114.14041891694069, 50.95821392722428], [-114.14037264883518, 50.958034470677376], [-114.14035513065755, 50.958008989691734], [-114.14026661776006, 50.957836573943496], [-114.14026368409395, 50.95777731388807], [-114.1402920987457, 50.95757992006838], [-114.14032679982483, 50.95739568583667], [-114.14033300243318, 50.95719678327441], [-114.1403301525861, 50.95716786570847], [-114.14031699299812, 50.956965275108814], [-114.14032001048326, 50.95690953545272], [-114.14032654836774, 50.95675530843437], [-114.14031188003719, 50.9565722476691], [-114.14032093249261, 50.956396479159594], [-114.14028832688928, 50.956200677901506], [-114.14021330885589, 50.955998841673136], [-114.14015002548695, 50.95583824440837], [-114.14013611152768, 50.95581536181271], [-114.14009939879179, 50.95573849976063], [-114.14002186618745, 50.955594247207046], [-114.13997920230031, 50.95551612786949], [-114.1399260610342, 50.955440355464816], [-114.13987132720649, 50.95533952116966], [-114.13972489535809, 50.95515578985214], [-114.13970645517111, 50.95512326806784], [-114.13968541659415, 50.9550906624645], [-114.13959078490734, 50.9549127984792], [-114.1395793017, 50.954885641112924], [-114.13946388289332, 50.954699059948325], [-114.13945365697145, 50.95467374660075], [-114.13938752375543, 50.95453787595034], [-114.13935106247663, 50.95448666252196], [-114.13921192288399, 50.95431039109826], [-114.13904721848667, 50.95415339805186], [-114.13894303143024, 50.95402113161981], [-114.13882853463292, 50.953848799690604], [-114.13878218270838, 50.95375953242183], [-114.13870448246598, 50.953581500798464], [-114.13868562318385, 50.95352701842785], [-114.138656957075, 50.953445211052895], [-114.1386191546917, 50.95333272591233], [-114.13855503313243, 50.95315570011735], [-114.1385121177882, 50.953068528324366], [-114.13843986578286, 50.952871553599834], [-114.13843056187034, 50.95284431241453], [-114.13834699429572, 50.952660497277975], [-114.13826325908303, 50.95255471765995], [-114.13821388967335, 50.95250937156379], [-114.1380197647959, 50.95234592445195], [-114.1378659568727, 50.952194295823574], [-114.13784684613347, 50.95216437242925], [-114.13771935738623, 50.9520011767745], [-114.13765540346503, 50.95195767469704], [-114.13741149008274, 50.95187226310372], [-114.13723119534552, 50.95185013487935], [-114.13714092224836, 50.95183580182493], [-114.13704997859895, 50.95182188786566], [-114.13683808408678, 50.95177528448403], [-114.13658293895423, 50.95167964696884], [-114.13654547184706, 50.95166481100023], [-114.13650280795991, 50.951647125184536], [-114.13630918599665, 50.951568922027946], [-114.13606820628047, 50.95144663006067], [-114.13603669032454, 50.95142844133079], [-114.13581389933825, 50.95130623318255], [-114.135776264593, 50.95128770917654], [-114.13555833511055, 50.95121210440993], [-114.1352984122932, 50.95112308859825], [-114.13525658659637, 50.951107079163194], [-114.13501108065248, 50.95100540667772], [-114.13496531546116, 50.95099300146103], [-114.13466867990792, 50.95095637254417], [-114.13438939489424, 50.950944889336824], [-114.13434044457972, 50.95094371587038], [-114.13406493142247, 50.950934663414955], [-114.13378832861781, 50.950927287340164], [-114.13374214433134, 50.950924856588244], [-114.13341633975506, 50.95093969255686], [-114.13332154043019, 50.95093407668173], [-114.13304468616843, 50.950933154672384], [-114.13296631537378, 50.95091404393315], [-114.13300638087094, 50.95091714523733], [-114.13317401893437, 50.950908260419965], [-114.13348968140781, 50.95089836977422], [-114.13358657620847, 50.95089518465102], [-114.13382554426789, 50.950900968164206], [-114.13406744599342, 50.95091186463833], [-114.13421002216637, 50.9509255271405], [-114.13443893194199, 50.95094581134617], [-114.13476708345115, 50.950966347008944], [-114.13506673648953, 50.95100238919258], [-114.13516237400472, 50.95102418214083], [-114.13536949083209, 50.95109861344099], [-114.13550041615963, 50.95114513300359], [-114.13554534316063, 50.95115971751511], [-114.1355901863426, 50.95117388293147], [-114.13584843277931, 50.95125233754516], [-114.13597038947046, 50.95129692927003], [-114.13616082631052, 50.95137848518789], [-114.13630197755992, 50.95144830644131], [-114.13650792092085, 50.9515574388206], [-114.13670975714922, 50.95167143270373], [-114.13674529641867, 50.95168652012944], [-114.13701930083334, 50.95180219039321], [-114.1370979230851, 50.951830772683024], [-114.1373151820153, 50.95185935497284], [-114.13762480951846, 50.95191811211407], [-114.137805942446, 50.95200687646866], [-114.1379074472934, 50.9521203674376], [-114.13793569430709, 50.95217845402658], [-114.13805496878922, 50.95232295803726], [-114.13823124021292, 50.95248715952039], [-114.13836828432977, 50.95266309566796], [-114.13845855742693, 50.9528265427798], [-114.13846501149237, 50.952853532508016], [-114.13850566372275, 50.95298973843455], [-114.13851597346365, 50.95305033959448], [-114.13855721242726, 50.953193083405495], [-114.1385652590543, 50.95322208479047], [-114.13862912915647, 50.953415455296636], [-114.13870196789503, 50.95360580831766], [-114.13871764205396, 50.953664565458894], [-114.1388139501214, 50.95386363565922], [-114.1388316359371, 50.95389322377741], [-114.13896817713976, 50.95406077802181], [-114.13914076052606, 50.95422154292464], [-114.13930596783757, 50.95439328812063], [-114.13932248018682, 50.95441776327789], [-114.13944259285927, 50.954573918133974], [-114.13945952430367, 50.95460157841444], [-114.13955097086728, 50.95479050651193], [-114.13963135331869, 50.954944817349315], [-114.13967527449131, 50.95502754673362], [-114.13979027420282, 50.95522007904947], [-114.13980745710433, 50.95524656586349], [-114.13992245681584, 50.95543364994228], [-114.13998113013804, 50.95554085448384], [-114.14002630859613, 50.95563121140003], [-114.14012672379613, 50.955802369862795], [-114.14016192778945, 50.95585400238633], [-114.14027214981616, 50.95604837872088], [-114.14027944207191, 50.956078469753265], [-114.14032688364387, 50.95628055743873], [-114.1403319966048, 50.9564617741853], [-114.1403407137841, 50.95651349052787], [-114.14036376401782, 50.95668297261], [-114.14035798050463, 50.956861758604646], [-114.14037968963385, 50.9570490103215], [-114.14039100520313, 50.95721958205104], [-114.14038916118443, 50.95741404220462], [-114.14038346149027, 50.95746927894652], [-114.14036208763719, 50.95765166915953], [-114.14034792222083, 50.957845374941826], [-114.14036703296006, 50.957905976101756], [-114.14043417200446, 50.9580694232136], [-114.14046744816005, 50.958270924165845], [-114.14046795107424, 50.958299254998565], [-114.14049569517374, 50.95848483033478], [-114.14049896411598, 50.95851802267134], [-114.14051690138876, 50.958722373470664], [-114.14055311121047, 50.958895375952125], [-114.14057993330061, 50.95905681140721], [-114.14058529771864, 50.959088830277324], [-114.14058554917574, 50.95928203314543], [-114.14061413146555, 50.959468530490994], [-114.14061823859811, 50.959531059488654], [-114.14064405485988, 50.95968084409833], [-114.1406718827784, 50.95986658707261], [-114.1406737267971, 50.959950322285295], [-114.14068378508091, 50.960113015025854], [-114.14068579673767, 50.960163893178105], [-114.14067255333066, 50.960269840434194], [-114.14055721834302, 50.96042490564287], [-114.14043450728059, 50.960599752143025], [-114.1403185017407, 50.9607651270926], [-114.14022873155773, 50.96090971492231], [-114.14018011651933, 50.96101633273065], [-114.1401486005634, 50.96120928414166], [-114.1401472594589, 50.96123568713665], [-114.14015354588628, 50.961374239996076], [-114.14016326889396, 50.961462166160345], [-114.14014616981149, 50.96165847033262], [-114.14012957364321, 50.96182107925415], [-114.14011540822685, 50.962014365941286], [-114.14009646512568, 50.96220429986715], [-114.14004131220281, 50.96240680664778], [-114.14003636687994, 50.96243874169886], [-114.14003041572869, 50.96260176971555], [-114.14001306518912, 50.96279195509851], [-114.14000409655273, 50.96299571916461], [-114.14001189172268, 50.96310258843005], [-114.14000887423754, 50.96324851736426], [-114.13998775184155, 50.963435182347894], [-114.1399849858135, 50.963465021923184], [-114.13993368856609, 50.963631235063076], [-114.13958860561252, 50.964321568608284], [-114.13974727503955, 50.96430136822164], [-114.13981508463621, 50.964444782584906], [-114.13985397666693, 50.96452524885535], [-114.13986613042653, 50.9646627958864], [-114.13986889645457, 50.96468701958656], [-114.13991717621684, 50.964777460321784], [-114.14001599885523, 50.96493948251009], [-114.1400899272412, 50.96508624963462], [-114.1401110496372, 50.965141067281365], [-114.1401665378362, 50.96530895680189], [-114.14017299190164, 50.965339383110404], [-114.14020149037242, 50.96552101895213], [-114.1402159910649, 50.965576423332095], [-114.14024566300213, 50.9657524432987], [-114.1402598284185, 50.965864257887006], [-114.14026192389429, 50.96594698727131], [-114.14027416147292, 50.96609844826162], [-114.14026913233101, 50.96618302166462], [-114.14022697135806, 50.966411428526044], [-114.14022026583552, 50.96660521812737], [-114.14024138823152, 50.966681661084294], [-114.14024658501148, 50.966785764321685], [-114.14024725556374, 50.966934375464916], [-114.14025790058076, 50.96698651090264], [-114.14030701853335, 50.967180384323], [-114.14031003601849, 50.967206954956055], [-114.14030307903886, 50.9674134850502], [-114.1402767598629, 50.967570561915636], [-114.14027810096741, 50.96760559827089], [-114.14028857834637, 50.96772126853466], [-114.14028556086123, 50.96783568151295], [-114.14028983563185, 50.96799862571061], [-114.14028665050864, 50.96819040365517], [-114.14031975902617, 50.96833105199039], [-114.14032218977809, 50.96835779026151], [-114.14032545872033, 50.96846935339272], [-114.14032445289195, 50.96855157986283], [-114.14034364745021, 50.96875676885247], [-114.14029662497342, 50.96895340830088], [-114.14030333049595, 50.96912004053593], [-114.14030651561916, 50.969143928959966], [-114.14030089974403, 50.96933118067682], [-114.1402989719063, 50.96936361864209], [-114.14029754698277, 50.96956084482372], [-114.14029662497342, 50.96959286369383], [-114.14028279483318, 50.969734098762274], [-114.14029067382216, 50.96991699188948], [-114.14030140265822, 50.97010516561568], [-114.14030316285789, 50.970133915543556], [-114.14033032022417, 50.970306331291795], [-114.14034213870764, 50.97051420249045], [-114.14034850895405, 50.97054655663669], [-114.14035320281982, 50.97074537537992], [-114.14036418311298, 50.97095148637891], [-114.14036954753101, 50.97113915719092], [-114.14035990834236, 50.9713317733258], [-114.14037709124386, 50.97149538807571], [-114.14038362912834, 50.97154852934182], [-114.14041321724653, 50.971677945926785], [-114.14040885865688, 50.97187668085098], [-114.14041229523718, 50.971905598416924], [-114.14042646065354, 50.972020430490375], [-114.14042947813869, 50.97213735803962], [-114.14044263772666, 50.97233450040221], [-114.14044439792633, 50.972360568121076], [-114.14044858887792, 50.97249266691506], [-114.14046292193234, 50.97262183204293], [-114.14047448895872, 50.972676146775484], [-114.14049217477441, 50.97287320531905], [-114.1405204217881, 50.97307361662388], [-114.14051866158843, 50.97310186363757], [-114.14051078259945, 50.97329322248697], [-114.14051111787558, 50.973322223871946], [-114.14053198881447, 50.973492208868265], [-114.14052955806255, 50.97358541563153], [-114.1405460704118, 50.9736942127347], [-114.14057482033968, 50.97384139895439], [-114.1405788436532, 50.97386813722551], [-114.14058269932866, 50.974061004817486], [-114.14057875983417, 50.97408757545054], [-114.1405857168138, 50.9742624219507], [-114.14058102294803, 50.97433836199343], [-114.14058513008058, 50.974365435540676], [-114.14059543982148, 50.97444330342114], [-114.14060055278242, 50.97455134615302], [-114.14059929549694, 50.97461043857038], [-114.14057482033968, 50.9748079162091], [-114.14056249894202, 50.974860806018114], [-114.14056107401848, 50.97491587512195], [-114.14056174457073, 50.975081752985716], [-114.14054699242115, 50.97521770745516], [-114.14054380729795, 50.97524167969823], [-114.1405373532325, 50.97539573907852], [-114.14053559303284, 50.97553362138569], [-114.14052880369127, 50.97566965967417], [-114.14054892025888, 50.97585054114461], [-114.14052947424352, 50.97595514729619], [-114.14052922278643, 50.97601423971355], [-114.1404945217073, 50.97614943981171], [-114.14048446342349, 50.97619051113725], [-114.14048186503351, 50.976213393732905], [-114.14047398604453, 50.976270977407694], [-114.14045730605721, 50.97635580226779], [-114.14046828635037, 50.97651128657162], [-114.14047247730196, 50.976666267961264], [-114.14048245176673, 50.97671748138964], [-114.1404789313674, 50.97680037841201], [-114.14047272875905, 50.976853016763926], [-114.14044154807925, 50.97696089185774], [-114.14043710567057, 50.977014284580946], [-114.14040558971465, 50.977140264585614], [-114.14039460942149, 50.977205811068416], [-114.14031833410263, 50.97739038057625], [-114.14028472267091, 50.97745508886874], [-114.14020048454404, 50.97760663367808], [-114.14018221199512, 50.97763295285404], [-114.14006880484521, 50.97781324759126], [-114.14005137048662, 50.97783789038658], [-114.13993377238512, 50.978005109354854], [-114.13991298526525, 50.978032099083066], [-114.13962867110968, 50.978448847308755], [-114.13960981182754, 50.97847349010408], [-114.13953060284257, 50.97855429165065], [-114.13938324898481, 50.97863903269172], [-114.13930135779083, 50.978706339374185], [-114.13927076384425, 50.978731820359826], [-114.13914855569601, 50.978835336863995], [-114.1390766389668, 50.978877330198884], [-114.1388535965234, 50.97899090498686], [-114.1387798357755, 50.97902703098953], [-114.1385879740119, 50.979087464511395], [-114.13831665180624, 50.979197937995195], [-114.1380440723151, 50.979307908564806], [-114.13777098990977, 50.97940446808934], [-114.13769194856286, 50.97942693158984], [-114.13757275789976, 50.979460375383496], [-114.13742716424167, 50.979506308212876], [-114.13731979206204, 50.97954788245261], [-114.13716288283467, 50.979605969041586], [-114.13700262084603, 50.979667492210865], [-114.1368040535599, 50.9797228127718], [-114.13672576658428, 50.97974653355777], [-114.1366433724761, 50.97976782359183], [-114.1364863794297, 50.97982750274241], [-114.13621690124273, 50.97992917522788], [-114.13609913550317, 50.97999229095876], [-114.13594113662839, 50.98005532287061], [-114.13571641780436, 50.980084743350744], [-114.13543000817299, 50.98001752048731], [-114.1352463606745, 50.97994728013873], [-114.13515198044479, 50.979904029518366], [-114.13497470319271, 50.9797846712172], [-114.13478552363813, 50.97962801344693], [-114.13472232408822, 50.97958602011204], [-114.13451478816569, 50.97945274785161], [-114.13432493805885, 50.97931285388768], [-114.13411078043282, 50.97919475287199], [-114.13407549262047, 50.97917421720922], [-114.1338853072375, 50.97907556220889], [-114.13385052233934, 50.979057708755136], [-114.13361331447959, 50.9789505880326], [-114.13357065059245, 50.97893633879721], [-114.13329807110131, 50.97883449867368], [-114.13304443471134, 50.978754200041294], [-114.13278660736978, 50.97865437157452], [-114.13257068954408, 50.978561248630285], [-114.13234840147197, 50.9784568939358], [-114.13210482336581, 50.978381959721446], [-114.1319771669805, 50.97834348678589], [-114.13169955834746, 50.978261679410934], [-114.1316542122513, 50.978251872584224], [-114.1313592530787, 50.97816763445735], [-114.13109262473881, 50.97806503996253], [-114.13105566054583, 50.97805221565068], [-114.13079925812781, 50.977953393012285], [-114.13052927702665, 50.977837638929486], [-114.1304889600724, 50.97782397642732], [-114.13026214577258, 50.977741833776236], [-114.12999484688044, 50.97764879465103], [-114.12995578721166, 50.97763764671981], [-114.12971774116158, 50.977544859051704], [-114.1295042540878, 50.97747151739895], [-114.12946796044707, 50.977457938715816], [-114.1293662879616, 50.97741913050413], [-114.12922756746411, 50.977355344220996], [-114.12898859940469, 50.97724906168878], [-114.12895113229752, 50.97723481245339], [-114.12867905572057, 50.97712643444538], [-114.1284545045346, 50.97701168619096], [-114.12842139601707, 50.97699047997594], [-114.12823439575732, 50.976865673437715], [-114.12800489924848, 50.97672670148313], [-114.12797153927386, 50.97671161405742], [-114.1277020610869, 50.976631147786975], [-114.12740064784884, 50.976554956287146], [-114.12732529453933, 50.97652888856828], [-114.1270572412759, 50.97643040120602], [-114.12679606117308, 50.976339960470796], [-114.12650981917977, 50.97623988054693], [-114.12646690383554, 50.976225547492504], [-114.12625408731401, 50.976154301315546], [-114.12617697380483, 50.976130329072475], [-114.12589668296278, 50.97603335045278], [-114.12585569545627, 50.97601801156998], [-114.12556869909167, 50.975924553349614], [-114.12552704103291, 50.97591298632324], [-114.1252360213548, 50.97581961192191], [-114.12519562058151, 50.975807290524244], [-114.1250391304493, 50.97575347870588], [-114.12495640106499, 50.97573135048151], [-114.12491935305297, 50.97571860998869], [-114.12467435002327, 50.975640239194036], [-114.12438098341227, 50.975575279444456], [-114.12415358237922, 50.975526496768], [-114.1238974314183, 50.97548752091825], [-114.12366148084402, 50.97541753202677], [-114.12335763685405, 50.97537285648286], [-114.12331162020564, 50.97536355257034], [-114.12326778285205, 50.9753605350852], [-114.12309402599931, 50.97535072825849], [-114.12278171628714, 50.97534301690757], [-114.12253369577229, 50.9753449447453], [-114.12224393337965, 50.97533664666116], [-114.12200186401606, 50.97533103078604], [-114.12195224314928, 50.97532122395933], [-114.12169273942709, 50.975304543972015], [-114.12140171974897, 50.97525936551392], [-114.12122963927686, 50.9751895442605], [-114.12115101702511, 50.97516112960875], [-114.120883801952, 50.97505669109523], [-114.12066536955535, 50.97496189177036], [-114.12062815390527, 50.9749445412308], [-114.12055514752865, 50.974915120750666], [-114.1204006690532, 50.97483976744115], [-114.12016010843217, 50.97474379464984], [-114.1198890376836, 50.9746871329844], [-114.11979180760682, 50.97468285821378], [-114.11960547789931, 50.97471537999809], [-114.11944228224456, 50.974757289513946], [-114.1193675994873, 50.97478444688022], [-114.11916735582054, 50.97486013546586], [-114.11909753456712, 50.9748840238899], [-114.11882118321955, 50.9749720338732], [-114.11878128536046, 50.97498024813831], [-114.11850878968835, 50.97504302859306], [-114.1184766869992, 50.97505124285817], [-114.11841860041022, 50.975076807662845], [-114.11828641779721, 50.975133972242475], [-114.11818801425397, 50.975204799324274], [-114.11815105006099, 50.97524813376367], [-114.11809782497585, 50.975324073806405], [-114.11802230402827, 50.975388027727604], [-114.1180020198226, 50.975408144295216], [-114.11796941421926, 50.97544888034463], [-114.11791602149606, 50.97554359585047], [-114.1178979165852, 50.97566161304712], [-114.11790043115616, 50.97568541765213], [-114.11788383498788, 50.975886918604374], [-114.11787469871342, 50.97592245787382], [-114.11779582500458, 50.97610426135361], [-114.11777864210308, 50.976132256910205], [-114.1177276801318, 50.9763312432915], [-114.11773480474949, 50.97635823301971], [-114.11780470982194, 50.97654825076461], [-114.11782197654247, 50.976603319868445], [-114.11781719885767, 50.97678101621568], [-114.11776137538254, 50.976890651509166], [-114.11773052997887, 50.97693532705307], [-114.1176996845752, 50.97698603756726], [-114.11766263656318, 50.977066587656736], [-114.11760211922228, 50.9771962556988], [-114.11758091300726, 50.97725082188845], [-114.11753950640559, 50.977384680882096], [-114.11753699183464, 50.977407144382596], [-114.11753171123564, 50.97743379883468], [-114.11753045395017, 50.977592216804624], [-114.11755216307938, 50.97778106108308], [-114.1175307892263, 50.9778059553355], [-114.11735820583999, 50.977845350280404], [-114.11730841733515, 50.977841997519135], [-114.1170178167522, 50.97779178991914], [-114.11673526279628, 50.977749628946185], [-114.11669494584203, 50.97774434834719], [-114.11653384566307, 50.97773521207273], [-114.11645824089646, 50.97773814573884], [-114.11623829975724, 50.97774334251881], [-114.11606848239899, 50.977758849039674], [-114.11593378521502, 50.977758849039674], [-114.11561887711287, 50.977743761613965], [-114.11557151935995, 50.97773781046271], [-114.11536012776196, 50.97771534696221], [-114.11531779915094, 50.9777142573148], [-114.11510447971523, 50.97772607579827], [-114.11505930125713, 50.977730015292764], [-114.11478529684246, 50.977760860696435], [-114.114511879161, 50.977830681949854], [-114.11433351226151, 50.97786429338157], [-114.11425136961043, 50.97787921316922], [-114.11405431106687, 50.977923553436995], [-114.11401868797839, 50.97793394699693], [-114.11386429332197, 50.977953895926476], [-114.11378500051796, 50.97792983986437], [-114.11362616345286, 50.977819534018636], [-114.11358400247991, 50.977773601189256], [-114.11353496834636, 50.97767109051347], [-114.11349959671497, 50.97754888236523], [-114.11348761059344, 50.977525413036346], [-114.11347470246255, 50.97750077024102], [-114.11344821564853, 50.977449053898454], [-114.11338300444186, 50.97736934199929], [-114.11332014016807, 50.977301029488444], [-114.11328325979412, 50.97725694067776], [-114.11322047933936, 50.97718904726207], [-114.1130868718028, 50.9770167991519], [-114.1129819303751, 50.97686902619898], [-114.11292744800448, 50.97675888799131], [-114.11290515214205, 50.97670532763004], [-114.11285469308496, 50.97663450054824], [-114.11280532367527, 50.97651983611286], [-114.11271823570132, 50.97642185166478], [-114.11260952241719, 50.97637969069183], [-114.11256325431168, 50.97637424245477], [-114.11251271143556, 50.97637306898832], [-114.11226930096745, 50.97639502957463], [-114.11213083192706, 50.97639192827046], [-114.11188624799252, 50.97637793049216], [-114.11183947697282, 50.97636083140969], [-114.11173512227833, 50.9762860648334], [-114.11169178783894, 50.97622688859701], [-114.11165423691273, 50.976164024323225], [-114.11164032295346, 50.976134771481156], [-114.11159187555313, 50.975969061255455], [-114.11142717115581, 50.97586470656097], [-114.11120714619756, 50.97583310678601], [-114.11116858944297, 50.9758388902992], [-114.1111258417368, 50.97583461552858], [-114.11109826527536, 50.97584366798401], [-114.1110632289201, 50.97584802657366], [-114.11104219034314, 50.97585054114461], [-114.1110167093575, 50.975853810086846], [-114.11097748205066, 50.97584827803075], [-114.11083742044866, 50.975836124271154], [-114.1107453033328, 50.97581231966615], [-114.11065662279725, 50.975773595273495], [-114.11061714403331, 50.97575674764812], [-114.11035839468241, 50.97563797608018], [-114.11028144881129, 50.9756092261523], [-114.11010936833918, 50.97556312568486], [-114.11002764478326, 50.975533202290535], [-114.10993083380163, 50.9754606988281], [-114.10988699644804, 50.97540797665715], [-114.10974559374154, 50.97528979182243], [-114.10957083106041, 50.9751361515373], [-114.10948768258095, 50.97505652345717], [-114.10938902758062, 50.97499701194465], [-114.1091704275459, 50.974898440763354], [-114.10889910534024, 50.974834067747], [-114.10863641649485, 50.97476810216904], [-114.10843432880938, 50.974692748859525], [-114.10836023278534, 50.974657628685236], [-114.10821162164211, 50.97458738833666], [-114.10806871019304, 50.974526116624475], [-114.10792630165815, 50.97446643747389], [-114.10788690671325, 50.97445445135236], [-114.10784717649221, 50.97443944774568], [-114.10755825228989, 50.97433760762215], [-114.10730780102313, 50.97425068728626], [-114.10726681351662, 50.974231995642185], [-114.10718701779842, 50.97419997677207], [-114.10710152238607, 50.97417541779578], [-114.10700940527022, 50.9741585701704], [-114.10696498118341, 50.974152367562056], [-114.10687470808625, 50.974138202145696], [-114.10682802088559, 50.974127473309636], [-114.10664688795805, 50.974083468317986], [-114.10651160404086, 50.97406108863652], [-114.10638118162751, 50.974022364243865], [-114.10612679086626, 50.973999900743365], [-114.10587365739048, 50.97397961653769], [-114.10563686862588, 50.97402018494904], [-114.10531827248633, 50.974029153585434], [-114.10514619201422, 50.97401104867458], [-114.10510218702257, 50.97401322796941], [-114.10481745377183, 50.97403686493635], [-114.10478023812175, 50.9740483481437], [-114.10463615320623, 50.97410777583718], [-114.10456088371575, 50.97413216717541], [-114.10426550544798, 50.974191427230835], [-114.10403617657721, 50.97419721074402], [-114.10394087433815, 50.97418681718409], [-114.10372328013182, 50.97413987852633], [-114.10367952659726, 50.974136693403125], [-114.10355539061129, 50.974141051992774], [-114.10338372923434, 50.97412412054837], [-114.10312095656991, 50.974125964567065], [-114.10282163880765, 50.97411112859845], [-114.10267696715891, 50.97408950328827], [-114.1025326307863, 50.97408011555672], [-114.10235929302871, 50.97407793626189], [-114.1022337321192, 50.97407341003418], [-114.10202225670218, 50.97409771755338], [-114.10188429057598, 50.97412462346256], [-114.10183684900403, 50.97412621602416], [-114.10161020234227, 50.97414331510663], [-114.10143485292792, 50.97416083328426], [-114.10134399309754, 50.97415907308459], [-114.10107761621475, 50.974144572392106], [-114.10084694623947, 50.974179189652205], [-114.10070395097136, 50.97424691542983], [-114.10068039782345, 50.974261332303286], [-114.100631615147, 50.974287735298276], [-114.10055031068623, 50.97433039918542], [-114.10050655715168, 50.97438018769026], [-114.10046339035034, 50.9744315687567], [-114.10044419579208, 50.974459229037166], [-114.10042156465352, 50.97447222098708], [-114.10039725713432, 50.97449703142047], [-114.10031419247389, 50.97458344884217], [-114.1002323012799, 50.974630638957024], [-114.1002323012799, 50.974630638957024], [-114.10011570900679, 50.97477262839675], [-114.10005158744752, 50.974849658086896], [-114.10002225078642, 50.974885700270534], [-114.09998646005988, 50.974937584251165], [-114.09996994771063, 50.974962059408426], [-114.09992435015738, 50.97503313794732], [-114.09989668987691, 50.97506599500775], [-114.0998821053654, 50.97508259117603], [-114.09985385835171, 50.97512391395867], [-114.09980272874236, 50.97525802440941], [-114.09978822804987, 50.97532709129155], [-114.09977339208126, 50.97539582289755], [-114.09976392053068, 50.97541962750256], [-114.09970818087459, 50.97553932107985], [-114.09968831576407, 50.97558969631791], [-114.09961899742484, 50.97577921114862], [-114.09955764189363, 50.97595414146781], [-114.09953258000314, 50.97600535489619], [-114.09945362247527, 50.97614265047014], [-114.09944205544889, 50.97616762854159], [-114.0994206815958, 50.976208029314876], [-114.09940064884722, 50.97625848837197], [-114.09934884868562, 50.976454289630055], [-114.09933652728796, 50.9764882363379], [-114.09929520450532, 50.976604828611016], [-114.09927165135741, 50.97665679641068], [-114.0991775225848, 50.9768249373883], [-114.09915581345558, 50.97686072811484], [-114.09910937771201, 50.97696466371417], [-114.0990181826055, 50.97714018076658], [-114.0989801287651, 50.977218048647046], [-114.09891240298748, 50.97732240334153], [-114.0988783724606, 50.977372443303466], [-114.09881425090134, 50.97751929424703], [-114.09873562864959, 50.97765491344035], [-114.09868223592639, 50.977760441601276], [-114.09862456843257, 50.97791123203933], [-114.09853094257414, 50.978067219257355], [-114.09846036694944, 50.978179620578885], [-114.09841761924326, 50.97822421230376], [-114.09836372360587, 50.97830090671778], [-114.09831787459552, 50.97841297276318], [-114.09822986461222, 50.978607181459665], [-114.09815149381757, 50.97877557389438], [-114.09812794066966, 50.978829050436616], [-114.09808376803994, 50.978943379595876], [-114.09806004725397, 50.97899492830038], [-114.09800665453076, 50.97908478230238], [-114.09797723405063, 50.979213612154126], [-114.09796742722392, 50.9793805796653], [-114.09804001450539, 50.979568837210536], [-114.09805895760655, 50.979634216055274], [-114.09809826873243, 50.97975382581353], [-114.09812995232642, 50.979948034510016], [-114.09814202226698, 50.97997561097145], [-114.09815358929336, 50.98000050522387], [-114.09825299866498, 50.98019261844456], [-114.09838710911572, 50.98036679439247], [-114.0984298568219, 50.980414655059576], [-114.09854544326663, 50.98054172471166], [-114.09864359535277, 50.980626130476594], [-114.09874233417213, 50.980702405795455], [-114.0988976508379, 50.980811370536685], [-114.09903050400317, 50.98088722676039], [-114.09913653507829, 50.980935422703624], [-114.0993482619524, 50.981010692194104], [-114.09948715008795, 50.98105821758509], [-114.09966300241649, 50.98110641352832], [-114.09993977285922, 50.98116776905954], [-114.09997765906155, 50.981182185932994], [-114.10025694407523, 50.98128318786621], [-114.10037412308156, 50.9813251812011], [-114.10051007755101, 50.98137488588691], [-114.10070839338005, 50.98143615759909], [-114.10083571448922, 50.98147798329592], [-114.10096236504614, 50.98152073100209], [-114.1010196134448, 50.98156255669892], [-114.10100888460875, 50.98164662718773], [-114.10082255490124, 50.98171116784215], [-114.1007518954575, 50.981745198369026], [-114.1007175296545, 50.981781743466854], [-114.1006971616298, 50.98186816088855], [-114.10068190656602, 50.98190017975867], [-114.10067318938673, 50.98192465491593], [-114.10067587159574, 50.98194569349289], [-114.10074569284916, 50.98201895132661], [-114.10083336755633, 50.982116013765335], [-114.10085809417069, 50.98215566016734], [-114.10080973058939, 50.98225154913962], [-114.10071761347353, 50.982392616569996], [-114.10068567842245, 50.982438968494534], [-114.10063873976469, 50.98251599818468], [-114.1005573514849, 50.98263652995229], [-114.10042122937739, 50.9827930200845], [-114.10030882805586, 50.98288421519101], [-114.10029734484851, 50.982913970947266], [-114.10031754523516, 50.98302645608783], [-114.10035383887589, 50.98304950632155], [-114.10057093016803, 50.98316140472889], [-114.10067478194833, 50.98328545689583], [-114.10077251493931, 50.98341420292854], [-114.10079196095467, 50.9834318049252], [-114.1008850838989, 50.98350036889315], [-114.1009403206408, 50.98363590426743], [-114.1009437572211, 50.983658116310835], [-114.10096043720841, 50.98384637385607], [-114.10093864426017, 50.983900437131524], [-114.10088432952762, 50.9840156044811], [-114.10076446831226, 50.9841744415462], [-114.10054871812463, 50.98430863581598], [-114.100541761145, 50.98433227278292], [-114.10057344473898, 50.984389605000615], [-114.10063907504082, 50.98448155447841], [-114.10071166232228, 50.984591944143176], [-114.10072180442512, 50.98461985588074], [-114.10074560903013, 50.98467065021396], [-114.10077393986285, 50.98474591970444], [-114.1007746104151, 50.9847669582814], [-114.100779639557, 50.98487600684166], [-114.10078131593764, 50.98491674289107], [-114.10075617022812, 50.98507884889841], [-114.10072859376669, 50.985257886350155], [-114.1007312759757, 50.985386967659], [-114.10074309445918, 50.98553038202226], [-114.10075365565717, 50.98557949997485], [-114.10077033564448, 50.98565334454179], [-114.10078458487988, 50.98567195236683], [-114.10080067813396, 50.98569676280022], [-114.10081375390291, 50.98572241142392], [-114.10081367008388, 50.98579650744796], [-114.10070470534265, 50.98592223599553], [-114.10046079196036, 50.986029440537095], [-114.10021176561713, 50.98611971363425], [-114.09997439011931, 50.98620160482824], [-114.09974581561983, 50.98630805499852], [-114.09958681091666, 50.98637158982456], [-114.09947725944221, 50.98640528507531], [-114.09938329830766, 50.98641626536846], [-114.0992132294923, 50.986453145742416], [-114.09919437021017, 50.9864676464349], [-114.09919696860015, 50.98650167696178], [-114.0992047637701, 50.98651408217847], [-114.09926754422486, 50.98662338219583], [-114.09935530275106, 50.986734526231885], [-114.09937650896609, 50.98677618429065], [-114.09940106794238, 50.98684332333505], [-114.09942789003253, 50.98688422702253], [-114.09943593665957, 50.986914401873946], [-114.0994360204786, 50.98693770356476], [-114.09939360804856, 50.98698673769832], [-114.09931808710098, 50.98704901523888], [-114.09917391836643, 50.98716711625457], [-114.09905564971268, 50.98729234188795], [-114.09903301857412, 50.98731690086424], [-114.0989460144192, 50.98744967021048], [-114.0989127382636, 50.98757162690163], [-114.09886110574007, 50.987710263580084], [-114.09882162697613, 50.98782090470195], [-114.09881358034909, 50.98787429742515], [-114.0988167654723, 50.9879804123193], [-114.0988196991384, 50.98804344423115], [-114.09882078878582, 50.98816397599876], [-114.0988149214536, 50.988195994868875], [-114.09880360588431, 50.98836371675134], [-114.09882280044258, 50.988523894920945], [-114.098897902295, 50.988694382831454], [-114.09890368580818, 50.98872589878738], [-114.09892044961452, 50.98884114995599], [-114.09889865666628, 50.988931842148304], [-114.09880544990301, 50.98908858373761], [-114.0987110696733, 50.9892360214144], [-114.09864300861955, 50.989385386928916], [-114.09863714128733, 50.989406760782], [-114.09863730892539, 50.98945068195462], [-114.09867879934609, 50.989569537341595], [-114.09874660894275, 50.989703899249434], [-114.09880880266428, 50.989808421581984], [-114.09887284040451, 50.98993482068181], [-114.09888675436378, 50.989965833723545], [-114.09892003051937, 50.990046467632055], [-114.09893478266895, 50.99009701050818], [-114.09897660836577, 50.99023514427245], [-114.09896093420684, 50.99040035158396], [-114.0989341121167, 50.990520967170596], [-114.09892631694674, 50.99066337570548], [-114.09890008158982, 50.99086579866707], [-114.09889538772404, 50.99093612283468], [-114.09888767637312, 50.991038382053375], [-114.09888776019216, 50.99106604233384], [-114.09887962974608, 50.99122286774218], [-114.09892958588898, 50.99130450747907], [-114.09899488091469, 50.99135245196521], [-114.09914282150567, 50.99145940504968], [-114.09915422089398, 50.991603741422296], [-114.09917450509965, 50.99176861345768], [-114.09927785396576, 50.99193465895951], [-114.09938329830766, 50.992111433297396], [-114.09939620643854, 50.992131885141134], [-114.09943660721183, 50.99217647686601], [-114.0995102841407, 50.992248728871346], [-114.09959116950631, 50.99237420596182], [-114.0996056701988, 50.99243011325598], [-114.09960608929396, 50.992488618940115], [-114.09960315562785, 50.992543771862984], [-114.09958228468895, 50.99259791895747], [-114.09957172349095, 50.99268475547433], [-114.09957960247993, 50.99271308630705], [-114.09960315562785, 50.99276731722057], [-114.0996143873781, 50.99282163195312], [-114.09961103461683, 50.99284845404327], [-114.09959753975272, 50.99287142045796], [-114.09950475208461, 50.99295264109969], [-114.09936418756843, 50.993088595569134], [-114.09919638186693, 50.993239218369126], [-114.09916109405458, 50.99326788447797], [-114.09909227862954, 50.993329491466284], [-114.0989631973207, 50.993423871695995], [-114.09874551929533, 50.993501991033554], [-114.09869464114308, 50.99351213313639], [-114.09851962700486, 50.99357835017145], [-114.09837034530938, 50.99367314949632], [-114.09820916131139, 50.99376266822219], [-114.09813565202057, 50.9938052482903], [-114.09811235032976, 50.99383223801851], [-114.09800112247467, 50.99396014586091], [-114.09784295596182, 50.99402594380081], [-114.09761069342494, 50.9940539393574], [-114.09755922853947, 50.994042037054896], [-114.09743274562061, 50.99397079087794], [-114.09722755663097, 50.99384615197778], [-114.09718438982964, 50.99382737651467], [-114.0970529615879, 50.99381044507027], [-114.09699277952313, 50.9938433021307], [-114.096984481439, 50.99387213587761], [-114.09702178090811, 50.993942292407155], [-114.09719394519925, 50.99406575784087], [-114.09723090939224, 50.99408905953169], [-114.09727960824966, 50.99411504343152], [-114.09738773480058, 50.994184613227844], [-114.09759636037052, 50.99430313333869], [-114.0976832807064, 50.99434512667358], [-114.09778260625899, 50.99438066594303], [-114.09789450466633, 50.99441100843251], [-114.09817345440388, 50.99444109946489], [-114.09837084822357, 50.99451821297407], [-114.0984211396426, 50.994559871032834], [-114.09853773191571, 50.994656682014465], [-114.09874954260886, 50.99479221738875], [-114.09896948374808, 50.99491777829826], [-114.09923267550766, 50.99505130201578], [-114.09927651286125, 50.9950709156692], [-114.09939218312502, 50.99510972388089], [-114.09951003268361, 50.995147190988064], [-114.09967632964253, 50.99522036500275], [-114.0998522657901, 50.99529219791293], [-114.09988990053535, 50.99531130865216], [-114.10006583668292, 50.99538506940007], [-114.10014160908759, 50.99541784264147], [-114.10037797875702, 50.995521107688546], [-114.10041209310293, 50.995535273104906], [-114.10044989548624, 50.995551282539964], [-114.10063513554633, 50.995630491524935], [-114.10071501508355, 50.99566636607051], [-114.10087879747152, 50.99573987536132], [-114.10104844719172, 50.99580223672092], [-114.10112857818604, 50.99583165720105], [-114.10138305276632, 50.99595260806382], [-114.10142571665347, 50.99597171880305], [-114.1015376150608, 50.99602988921106], [-114.10167306661606, 50.99609434604645], [-114.10185822285712, 50.99618109874427], [-114.10206181928515, 50.9962416999042], [-114.10210708156228, 50.99625896662474], [-114.10223809070885, 50.99630448035896], [-114.10235040821135, 50.99635016173124], [-114.10257646813989, 50.99643498659134], [-114.10259784199297, 50.99644370377064], [-114.10273924469948, 50.99650187417865], [-114.10297569818795, 50.996605809777975], [-114.10301190800965, 50.99662232212722], [-114.10307586193085, 50.99665241315961], [-114.10314819775522, 50.996689377352595], [-114.10330066457391, 50.996735310181975], [-114.103530831635, 50.996797839179635], [-114.10380969755352, 50.99687277339399], [-114.10388907417655, 50.99690252915025], [-114.10413122735918, 50.99697553552687], [-114.10416634753346, 50.9969880245626], [-114.10439785569906, 50.997089529410005], [-114.10467714071274, 50.99718458019197], [-114.10471259616315, 50.99719908088446], [-114.10478929057717, 50.997235709801316], [-114.10487227141857, 50.99726680666208], [-114.10517024807632, 50.99733796902001], [-114.10538339987397, 50.99740829318762], [-114.1056030895561, 50.99745414219797], [-114.10564189776778, 50.99745967425406], [-114.10590131767094, 50.99754516966641], [-114.10599921829998, 50.99757894873619], [-114.10621111281216, 50.99763301201165], [-114.10635821521282, 50.99766779690981], [-114.1065027192235, 50.99769704975188], [-114.10663272254169, 50.99772890098393], [-114.10675970837474, 50.99775421433151], [-114.10680404864252, 50.99776268005371], [-114.10694050602615, 50.99778472445905], [-114.10703044384718, 50.99780576303601], [-114.10720403306186, 50.997859155759215], [-114.10720403306186, 50.997859155759215], [-114.10738005302846, 50.99788321182132], [-114.10752095282078, 50.997915817424655], [-114.10755875520408, 50.997928557917476], [-114.10777769051492, 50.99797180853784], [-114.10796402022243, 50.998017909005284], [-114.10814481787384, 50.998052107170224], [-114.10818689502776, 50.998061494901776], [-114.1083521861583, 50.998108852654696], [-114.10844472236931, 50.99812368862331], [-114.10849031992257, 50.998131735250354], [-114.10880656912923, 50.998196778818965], [-114.10907504148781, 50.99821463227272], [-114.10911560989916, 50.99821169860661], [-114.1092066373676, 50.99821790121496], [-114.10924980416894, 50.998224690556526], [-114.10939967259765, 50.998248998075724], [-114.10945105366409, 50.99825846962631], [-114.10967024043202, 50.99830951541662], [-114.1099323425442, 50.998367853462696], [-114.11016502417624, 50.99835419096053], [-114.11036317236722, 50.998304318636656], [-114.11040499806404, 50.99828981794417], [-114.11064614541829, 50.99821555428207], [-114.11082602106035, 50.99812192842364], [-114.110909672454, 50.99809376522899], [-114.11111385561526, 50.99801866337657], [-114.11137981340289, 50.99789788015187], [-114.11141191609204, 50.99787558428943], [-114.11146975122392, 50.997832333669066], [-114.11156044341624, 50.9977579023689], [-114.11161391995847, 50.99772940389812], [-114.1116243135184, 50.99772655405104], [-114.11162506788969, 50.99771616049111], [-114.11160067655146, 50.997714567929506], [-114.11159028299153, 50.997722363099456], [-114.11158357746899, 50.997738959267735], [-114.11159120500088, 50.9977409709245], [-114.11161509342492, 50.99774692207575], [-114.11159916780889, 50.997738875448704], [-114.11160243675113, 50.99772999063134], [-114.11160000599921, 50.997719848528504], [-114.1115989163518, 50.99772152490914], [-114.1116005089134, 50.99771364592016], [-114.11161115393043, 50.997708700597286], [-114.11161350086331, 50.99770685657859], [-114.11162330769002, 50.997707191854715], [-114.11162590608001, 50.99770543165505], [-114.11162674427032, 50.99770601838827], [-114.11161735653877, 50.997705683112144], [-114.11159732379019, 50.99768405780196], [-114.11160646006465, 50.99769285880029]]}, "properties": {"name": "Last_Chance_Half_Marathon.fit"}}]}